[
  {
    "type": "node",
    "id": 21225885,
    "lat": 45.4800714,
    "lon": 9.1897116,
    "tags": {
      "highway": "traffic_signals"
    }
  },
  {
    "type": "node",
    "id": 21226218,
    "lat": 45.4846358,
    "lon": 9.1950971,
    "tags": {
      "highway": "traffic_signals"
    }
  },
  {
    "type": "node",
    "id": 21226476,
    "lat": 45.482916,
    "lon": 9.1930807,
    "tags": {
      "highway": "traffic_signals"
    }
  },
  {
    "type": "node",
    "id": 21226533,
    "lat": 45.4797497,
    "lon": 9.1921747,
    "tags": {
      "highway": "traffic_signals"
    }
  },
  {
    "type": "node",
    "id": 21306381,
    "lat": 45.484641,
    "lon": 9.1953072,
    "tags": {
      "highway": "traffic_signals"
    }
  },
  {
    "type": "node",
    "id": 21306400,
    "lat": 45.4828461,
    "lon": 9.1932163,
    "tags": {
      "highway": "traffic_signals"
    }
  },
  {
    "type": "node",
    "id": 25543629,
    "lat": 45.4812237,
    "lon": 9.196929,
    "tags": {
      "highway": "traffic_signals"
    }
  },
  {
    "type": "node",
    "id": 25543769,
    "lat": 45.4829285,
    "lon": 9.1933055,
    "tags": {
      "highway": "traffic_signals"
    }
  },
  {
    "type": "node",
    "id": 25543813,
    "lat": 45.4829983,
    "lon": 9.1931699,
    "tags": {
      "highway": "traffic_signals"
    }
  },
  {
    "type": "node",
    "id": 53763220,
    "lat": 45.4847095,
    "lon": 9.1951986,
    "tags": {
      "highway": "traffic_signals"
    }
  },
  {
    "type": "node",
    "id": 91567648,
    "lat": 45.4848999,
    "lon": 9.1948574,
    "tags": {
      "name": "Gioia",
      "name:it": "Gioia",
      "name:ja": "ジョイア",
      "operator": "ATM",
      "railway": "station",
      "start_date": "1971",
      "station": "subway",
      "subway": "yes",
      "wikipedia": "it:Gioia (metropolitana di Milano)"
    }
  },
  {
    "type": "node",
    "id": 232856408,
    "lat": 45.4802356,
    "lon": 9.1930426,
    "tags": {
      "highway": "traffic_signals"
    }
  },
  {
    "type": "node",
    "id": 241474729,
    "lat": 45.4795073,
    "lon": 9.1928487,
    "tags": {
      "highway": "traffic_signals"
    }
  },
  {
    "type": "node",
    "id": 252634906,
    "lat": 45.4805707,
    "lon": 9.1878758,
    "tags": {
      "addr:city": "Milano",
      "addr:country": "IT",
      "addr:housenumber": "10",
      "addr:postcode": "20121",
      "addr:street": "Piazza 25 Aprile",
      "alt_name": "Eataly",
      "name": "Eataly Smeraldo",
      "opening_hours": "8:30-24:00",
      "operator": "Eataly Distribuzione S.p.A.",
      "ref:vatin": "IT09450580015",
      "shop": "mall",
      "website": "http://www.eataly.net/",
      "wikipedia": "it:Teatro Smeraldo"
    }
  },
  {
    "type": "node",
    "id": 260484047,
    "lat": 45.4796686,
    "lon": 9.1928998,
    "tags": {
      "highway": "traffic_signals"
    }
  },
  {
    "type": "node",
    "id": 263049100,
    "lat": 45.4851659,
    "lon": 9.1944725,
    "tags": {
      "highway": "give_way"
    }
  },
  {
    "type": "node",
    "id": 282557079,
    "lat": 45.4831777,
    "lon": 9.1949519,
    "tags": {
      "crossing": "uncontrolled",
      "highway": "crossing"
    }
  },
  {
    "type": "node",
    "id": 282558109,
    "lat": 45.4856893,
    "lon": 9.1916803,
    "tags": {
      "bicycle": "yes",
      "crossing": "uncontrolled",
      "crossing_ref": "pelican",
      "highway": "crossing"
    }
  },
  {
    "type": "node",
    "id": 282558110,
    "lat": 45.485098,
    "lon": 9.1918277,
    "tags": {
      "noexit": "yes"
    }
  },
  {
    "type": "node",
    "id": 308840682,
    "lat": 45.4807013,
    "lon": 9.1904496,
    "tags": {
      "highway": "traffic_signals"
    }
  },
  {
    "type": "node",
    "id": 308842416,
    "lat": 45.4802756,
    "lon": 9.1932355,
    "tags": {
      "addr:city": "Milano",
      "addr:country": "IT",
      "addr:housenumber": "10",
      "addr:postcode": "20121",
      "addr:street": "Piazzale Principessa Clotilde",
      "email": "info@hotelcervomilano.it",
      "fax": "+39 02 6571851",
      "name": "Hotel Cervo",
      "phone": "+39 02 29004031",
      "stars": "3",
      "tourism": "hotel",
      "website": "http://hotelcervomilano.com/it"
    }
  },
  {
    "type": "node",
    "id": 316535174,
    "lat": 45.4799468,
    "lon": 9.1928141,
    "tags": {
      "amenity": "bicycle_rental",
      "capacity": "24",
      "operator": "BikeMi",
      "ref": "46",
      "source_ref": "http://www.bikemi.com"
    }
  },
  {
    "type": "node",
    "id": 468943094,
    "lat": 45.4831233,
    "lon": 9.1931461,
    "tags": {
      "crossing": "uncontrolled",
      "highway": "crossing"
    }
  },
  {
    "type": "node",
    "id": 537514838,
    "lat": 45.4801092,
    "lon": 9.1929921,
    "tags": {
      "crossing": "traffic_signals",
      "highway": "crossing"
    }
  },
  {
    "type": "node",
    "id": 787822236,
    "lat": 45.484563,
    "lon": 9.1952091,
    "tags": {
      "highway": "traffic_signals"
    }
  },
  {
    "type": "node",
    "id": 1107696118,
    "lat": 45.483312,
    "lon": 9.1947206,
    "tags": {
      "crossing": "uncontrolled",
      "highway": "crossing"
    }
  },
  {
    "type": "node",
    "id": 1111714813,
    "lat": 45.4810934,
    "lon": 9.1967181,
    "tags": {
      "highway": "traffic_signals"
    }
  },
  {
    "type": "node",
    "id": 1276981428,
    "lat": 45.4840439,
    "lon": 9.1958492,
    "tags": {
      "amenity": "bicycle_rental",
      "capacity": "24",
      "name": "Gioia - Pirelli",
      "operator": "BikeMi",
      "ref": "91",
      "source_ref": "www.bikemi.it"
    }
  },
  {
    "type": "node",
    "id": 1328900668,
    "lat": 45.4803407,
    "lon": 9.1877263,
    "tags": {
      "fixme": "Extimated position: To be checked where Piazza 25 aprile ends and where Bastioni di porta nuova starts"
    }
  },
  {
    "type": "node",
    "id": 1328900841,
    "lat": 45.4820337,
    "lon": 9.1920373,
    "tags": {
      "bus": "yes",
      "fixme": "Position estimated",
      "name": "Via Gioia - Via Vespucci",
      "public_transport": "stop_position"
    }
  },
  {
    "type": "node",
    "id": 1328900899,
    "lat": 45.4801997,
    "lon": 9.1888232,
    "tags": {
      "highway": "crossing"
    }
  },
  {
    "type": "node",
    "id": 1408151059,
    "lat": 45.4815544,
    "lon": 9.1896928,
    "tags": {
      "crossing": "zebra",
      "highway": "crossing"
    }
  },
  {
    "type": "node",
    "id": 1408151060,
    "lat": 45.4816397,
    "lon": 9.1895116,
    "tags": {
      "crossing": "zebra",
      "highway": "crossing"
    }
  },
  {
    "type": "node",
    "id": 1463921325,
    "lat": 45.4829442,
    "lon": 9.1944526,
    "tags": {
      "amenity": "parking_entrance",
      "opening_hours": "Mo-Fr 07:00-21:30; Sa 07:30-14:00; Su,PH closed",
      "parking": "underground"
    }
  },
  {
    "type": "node",
    "id": 1463921328,
    "lat": 45.4829775,
    "lon": 9.1938157,
    "tags": {
      "crossing": "uncontrolled",
      "highway": "crossing"
    }
  },
  {
    "type": "node",
    "id": 1463921329,
    "lat": 45.4829784,
    "lon": 9.1935308,
    "tags": {
      "crossing": "uncontrolled",
      "highway": "crossing"
    }
  },
  {
    "type": "node",
    "id": 1463921351,
    "lat": 45.4830309,
    "lon": 9.1946721,
    "tags": {
      "amenity": "parking_entrance",
      "opening_hours": "Mo-Fr 07:00-21:30; Sa 07:30-14:00; Su,PH closed",
      "parking": "underground"
    }
  },
  {
    "type": "node",
    "id": 1463921362,
    "lat": 45.4831477,
    "lon": 9.1944276,
    "tags": {
      "crossing": "uncontrolled",
      "highway": "crossing"
    }
  },
  {
    "type": "node",
    "id": 1463921365,
    "lat": 45.4831733,
    "lon": 9.1948291,
    "tags": {
      "crossing": "uncontrolled",
      "highway": "crossing"
    }
  },
  {
    "type": "node",
    "id": 1463921372,
    "lat": 45.4832137,
    "lon": 9.1940846,
    "tags": {
      "amenity": "parking",
      "capacity": "727",
      "fee": "yes",
      "fee:disabled": "no",
      "maxheight": "2.1",
      "name": "Einaudi",
      "opening_hours": "Mo-Fr 07:00-21:30; Sa 07:30-14:00; Su,PH closed",
      "operator": "Azienda Trasporti Milanesi s.p.a.",
      "park_ride": "yes",
      "parking": "underground",
      "subway": "yes",
      "supervised": "no"
    }
  },
  {
    "type": "node",
    "id": 1463921373,
    "lat": 45.4832176,
    "lon": 9.1944481,
    "tags": {
      "tourism": "artwork"
    }
  },
  {
    "type": "node",
    "id": 1463921374,
    "lat": 45.4832324,
    "lon": 9.194769,
    "tags": {
      "crossing": "uncontrolled",
      "highway": "crossing"
    }
  },
  {
    "type": "node",
    "id": 1463921383,
    "lat": 45.4832989,
    "lon": 9.1940015,
    "tags": {
      "amenity": "parking_entrance",
      "opening_hours": "Mo-Fr 07:00-21:30; Sa 07:30-14:00; Su,PH closed",
      "parking": "underground"
    }
  },
  {
    "type": "node",
    "id": 1463921387,
    "lat": 45.4833272,
    "lon": 9.1942048,
    "tags": {
      "amenity": "parking_entrance",
      "opening_hours": "Mo-Fr 07:00-21:30; Sa 07:30-14:00; Su,PH closed",
      "parking": "underground"
    }
  },
  {
    "type": "node",
    "id": 1463921393,
    "lat": 45.4834039,
    "lon": 9.1941756,
    "tags": {
      "barrier": "swing_gate",
      "opening_hours": "Mo-Fr 07:00-21:30; Sa 07:30-14:00; Su,PH closed"
    }
  },
  {
    "type": "node",
    "id": 1463921395,
    "lat": 45.4834335,
    "lon": 9.1942438,
    "tags": {
      "barrier": "swing_gate",
      "opening_hours": "Mo-Fr 07:00-21:30; Sa 07:30-14:00; Su,PH closed"
    }
  },
  {
    "type": "node",
    "id": 1463921427,
    "lat": 45.4838858,
    "lon": 9.1954039,
    "tags": {
      "amenity": "parking_entrance",
      "parking": "underground"
    }
  },
  {
    "type": "node",
    "id": 1479248935,
    "lat": 45.4797889,
    "lon": 9.1938722,
    "tags": {
      "crossing": "uncontrolled",
      "highway": "crossing"
    }
  },
  {
    "type": "node",
    "id": 1479259661,
    "lat": 45.4807153,
    "lon": 9.1904709,
    "tags": {
      "highway": "traffic_signals"
    }
  },
  {
    "type": "node",
    "id": 1484905503,
    "lat": 45.4844019,
    "lon": 9.1953017,
    "tags": {
      "name": "Gioia",
      "railway": "subway_entrance"
    }
  },
  {
    "type": "node",
    "id": 1484905505,
    "lat": 45.4847027,
    "lon": 9.1947889,
    "tags": {
      "name": "Gioia",
      "railway": "subway_entrance"
    }
  },
  {
    "type": "node",
    "id": 1500167231,
    "lat": 45.4803834,
    "lon": 9.1930088,
    "tags": {
      "addr:housenumber": "10A",
      "addr:street": "Piazzale Principessa Clotilde",
      "comment:it": "su scontrino indirizzo riportato cme Piazza Clotilde 10A",
      "contact:phone": "+39 02 23005971",
      "name": "Carrefour Market",
      "opening_hours": "24/7",
      "operator": "GS spa",
      "ref:vatin": "IT12683790153",
      "shop": "supermarket"
    }
  },
  {
    "type": "node",
    "id": 1523573724,
    "lat": 45.4797449,
    "lon": 9.1930759,
    "tags": {
      "crossing": "uncontrolled",
      "highway": "crossing"
    }
  },
  {
    "type": "node",
    "id": 1523573726,
    "lat": 45.4797342,
    "lon": 9.1929204,
    "tags": {
      "crossing": "traffic_signals",
      "highway": "crossing"
    }
  },
  {
    "type": "node",
    "id": 1523573806,
    "lat": 45.4807944,
    "lon": 9.1906646,
    "tags": {
      "crossing": "uncontrolled",
      "highway": "crossing"
    }
  },
  {
    "type": "node",
    "id": 1523573811,
    "lat": 45.4808546,
    "lon": 9.1905668,
    "tags": {
      "crossing": "uncontrolled",
      "highway": "crossing"
    }
  },
  {
    "type": "node",
    "id": 1523574009,
    "lat": 45.4816069,
    "lon": 9.1916987,
    "tags": {
      "highway": "crossing"
    }
  },
  {
    "type": "node",
    "id": 1523574013,
    "lat": 45.4816797,
    "lon": 9.1915709,
    "tags": {
      "highway": "crossing"
    }
  },
  {
    "type": "node",
    "id": 1523604714,
    "lat": 45.479824,
    "lon": 9.1922056,
    "tags": {
      "crossing": "traffic_signals",
      "highway": "crossing"
    }
  },
  {
    "type": "node",
    "id": 1523604747,
    "lat": 45.4800369,
    "lon": 9.1899415,
    "tags": {
      "crossing": "uncontrolled",
      "highway": "crossing"
    }
  },
  {
    "type": "node",
    "id": 1523604759,
    "lat": 45.4801137,
    "lon": 9.1899704,
    "tags": {
      "crossing": "uncontrolled",
      "highway": "crossing"
    }
  },
  {
    "type": "node",
    "id": 1523604763,
    "lat": 45.4801672,
    "lon": 9.1899417,
    "tags": {
      "highway": "give_way"
    }
  },
  {
    "type": "node",
    "id": 1523604786,
    "lat": 45.4802156,
    "lon": 9.1923154,
    "tags": {
      "highway": "crossing"
    }
  },
  {
    "type": "node",
    "id": 1583651469,
    "lat": 45.4842987,
    "lon": 9.1954739,
    "tags": {
      "name": "Gioia",
      "railway": "subway_entrance",
      "wheelchair": "no"
    }
  },
  {
    "type": "node",
    "id": 1598229892,
    "lat": 45.4800462,
    "lon": 9.1922078,
    "tags": {
      "bench": "yes",
      "highway": "bus_stop",
      "name": "Piazzale Principessa Clotilde (Ospedale Fatebenefratelli)",
      "ref": "11605",
      "shelter": "yes"
    }
  },
  {
    "type": "node",
    "id": 1693183357,
    "lat": 45.4835959,
    "lon": 9.1950784,
    "tags": {
      "amenity": "vending_machine",
      "vending": "parking_tickets"
    }
  },
  {
    "type": "node",
    "id": 1697767058,
    "lat": 45.4824226,
    "lon": 9.1951953,
    "tags": {
      "addr:housenumber": "16",
      "addr:street": "Viale della Liberazione"
    }
  },
  {
    "type": "node",
    "id": 1697767059,
    "lat": 45.4825874,
    "lon": 9.1948428,
    "tags": {
      "addr:housenumber": "18",
      "addr:street": "Viale della Liberazione"
    }
  },
  {
    "type": "node",
    "id": 1725740894,
    "lat": 45.479497,
    "lon": 9.1929639,
    "tags": {
      "crossing": "traffic_signals",
      "highway": "crossing"
    }
  },
  {
    "type": "node",
    "id": 1725740900,
    "lat": 45.4796055,
    "lon": 9.1938525,
    "tags": {
      "highway": "give_way"
    }
  },
  {
    "type": "node",
    "id": 1725740909,
    "lat": 45.4796579,
    "lon": 9.1930051,
    "tags": {
      "crossing": "traffic_signals",
      "highway": "crossing"
    }
  },
  {
    "type": "node",
    "id": 1725740913,
    "lat": 45.4796719,
    "lon": 9.1938005,
    "tags": {
      "crossing": "uncontrolled",
      "highway": "crossing"
    }
  },
  {
    "type": "node",
    "id": 1725740915,
    "lat": 45.4797618,
    "lon": 9.1929965,
    "tags": {
      "highway": "give_way"
    }
  },
  {
    "type": "node",
    "id": 1725740920,
    "lat": 45.4801305,
    "lon": 9.1897851,
    "tags": {
      "crossing": "uncontrolled",
      "highway": "crossing"
    }
  },
  {
    "type": "node",
    "id": 1730563192,
    "lat": 45.4797721,
    "lon": 9.1950113,
    "tags": {
      "bench": "no",
      "fixme": "Position estimated - check shelter and bench",
      "name": "Viale Monte Santo",
      "public_transport": "stop_position",
      "railway": "tram_stop",
      "ref": "11863",
      "shelter": "no",
      "tram": "yes"
    }
  },
  {
    "type": "node",
    "id": 1769318216,
    "lat": 45.4856088,
    "lon": 9.1915008,
    "tags": {
      "addr:city": "Milano",
      "addr:country": "IT",
      "addr:housenumber": "20",
      "addr:street": "Via Gaetano De Castillia"
    }
  },
  {
    "type": "node",
    "id": 1769318218,
    "lat": 45.485662,
    "lon": 9.1918344,
    "tags": {
      "addr:city": "Milano",
      "addr:country": "IT",
      "addr:housenumber": "22",
      "addr:postcode": "20124",
      "addr:street": "Via Gaetano De Castillia"
    }
  },
  {
    "type": "node",
    "id": 1769318219,
    "lat": 45.4857715,
    "lon": 9.1927925,
    "tags": {
      "addr:housenumber": "28",
      "addr:street": "Via Gaetano De Castillia",
      "barrier": "gate",
      "entrance": "ma"
    }
  },
  {
    "type": "node",
    "id": 1831141814,
    "lat": 45.482795,
    "lon": 9.1933157,
    "tags": {
      "crossing": "traffic_signals",
      "highway": "crossing"
    }
  },
  {
    "type": "node",
    "id": 1831141817,
    "lat": 45.4828745,
    "lon": 9.1934096,
    "tags": {
      "crossing": "traffic_signals",
      "highway": "crossing"
    }
  },
  {
    "type": "node",
    "id": 1946779114,
    "lat": 45.4796333,
    "lon": 9.1943857,
    "tags": {
      "highway": "traffic_signals"
    }
  },
  {
    "type": "node",
    "id": 1946779118,
    "lat": 45.4796974,
    "lon": 9.1948015,
    "tags": {
      "comment": "obbligo di andare dritto o svoltasvolta a destra eccetto tram",
      "traffic_sign": "yes"
    }
  },
  {
    "type": "node",
    "id": 1946779119,
    "lat": 45.4796786,
    "lon": 9.1945822,
    "tags": {
      "highway": "traffic_signals"
    }
  },
  {
    "type": "node",
    "id": 1946779120,
    "lat": 45.4797384,
    "lon": 9.1946334,
    "tags": {
      "comment": "obbligo di svolta a destra",
      "traffic_sign": "yes"
    }
  },
  {
    "type": "node",
    "id": 1946779126,
    "lat": 45.4801751,
    "lon": 9.1928904,
    "tags": {
      "crossing": "traffic_signals",
      "highway": "crossing"
    }
  },
  {
    "type": "node",
    "id": 1946779127,
    "lat": 45.4802434,
    "lon": 9.1924337,
    "tags": {
      "crossing": "uncontrolled",
      "highway": "crossing"
    }
  },
  {
    "type": "node",
    "id": 1946779128,
    "lat": 45.4802259,
    "lon": 9.1930225,
    "tags": {
      "highway": "traffic_signals"
    }
  },
  {
    "type": "node",
    "id": 1946779137,
    "lat": 45.4806781,
    "lon": 9.1905919,
    "tags": {
      "crossing": "traffic_signals",
      "highway": "crossing"
    }
  },
  {
    "type": "node",
    "id": 1946783555,
    "lat": 45.4812814,
    "lon": 9.1970527,
    "tags": {
      "crossing": "traffic_signals",
      "highway": "crossing"
    }
  },
  {
    "type": "node",
    "id": 1973121652,
    "lat": 45.4846499,
    "lon": 9.1947328,
    "tags": {
      "amenity": "bicycle_rental",
      "capacity": "24",
      "operator": "BikeMi",
      "ref": "90"
    }
  },
  {
    "type": "node",
    "id": 2091579081,
    "lat": 45.4822106,
    "lon": 9.1921108,
    "tags": {
      "bicycle": "yes",
      "highway": "crossing"
    }
  },
  {
    "type": "node",
    "id": 2091579088,
    "lat": 45.4853831,
    "lon": 9.1903431,
    "tags": {
      "barrier": "bollard",
      "bicycle": "yes",
      "comment:it": "qui c'è una barriera composta da 5 pali metallici verticali. Secondo quanto dice il cartello l'accesso sarebbe consentito più a sud ad autorizzati, taxi e bici, ma per i veicoli la cosa è fisicamente impossibile",
      "fixme": "non chiara la presenza del limite 30 km/h",
      "foot": "yes"
    }
  },
  {
    "type": "node",
    "id": 2092324665,
    "lat": 45.4803792,
    "lon": 9.1874936,
    "tags": {
      "source": "Bing"
    }
  },
  {
    "type": "node",
    "id": 2095552621,
    "lat": 45.4840897,
    "lon": 9.1962556,
    "tags": {
      "addr:city": "Milano",
      "addr:street": "Via Giovanni Battista Pirelli",
      "amenity": "taxi",
      "name": "Posteggio taxi via Giovanni Battista Pirelli",
      "phone": "+39 02 6705040",
      "source": "personal survey on site (including phone number)"
    }
  },
  {
    "type": "node",
    "id": 2095618239,
    "lat": 45.4856008,
    "lon": 9.1914383,
    "tags": {
      "addr:city": "Milano",
      "addr:country": "IT",
      "addr:housenumber": "20",
      "addr:postcode": "20124",
      "addr:street": "Via Gaetano De Castillia",
      "amenity": "restaurant",
      "name": "Trattoria da Tomaso"
    }
  },
  {
    "type": "node",
    "id": 2095618243,
    "lat": 45.485363,
    "lon": 9.190362,
    "tags": {
      "comment:it": "Fine zona traffico limitato",
      "traffic_sign": "yes"
    }
  },
  {
    "type": "node",
    "id": 2095618249,
    "lat": 45.4854061,
    "lon": 9.1904206,
    "tags": {
      "barrier": "bollard",
      "bicycle": "yes",
      "comment:it": "qui c'è una barriera composta da 2 pali metallici verticali.",
      "foot": "yes"
    }
  },
  {
    "type": "node",
    "id": 2095618252,
    "lat": 45.4855185,
    "lon": 9.1904001,
    "tags": {
      "bicycle": "yes",
      "crossing": "uncontrolled",
      "crossing_ref": "pelican",
      "highway": "crossing",
      "traffic_calming": "hump"
    }
  },
  {
    "type": "node",
    "id": 2095675766,
    "lat": 45.4809322,
    "lon": 9.1885482,
    "tags": {
      "addr:city": "Milano",
      "addr:country": "IT",
      "addr:housenumber": "20",
      "addr:postcode": "20124",
      "addr:street": "Viale Monte Grappa",
      "fixme": "Position estimated"
    }
  },
  {
    "type": "node",
    "id": 2095675768,
    "lat": 45.4806724,
    "lon": 9.1885167,
    "tags": {
      "addr:city": "Milano",
      "addr:country": "IT",
      "addr:housenumber": "9",
      "addr:postcode": "20124",
      "addr:street": "Viale Monte Grappa",
      "fixme": "Position estimated"
    }
  },
  {
    "type": "node",
    "id": 2095675769,
    "lat": 45.4806429,
    "lon": 9.1889643,
    "tags": {
      "addr:city": "Milano",
      "addr:country": "IT",
      "addr:housenumber": "7",
      "addr:postcode": "20124",
      "addr:street": "Viale Monte Grappa",
      "amenity": "pharmacy",
      "dispensing": "yes",
      "fixme": "Position estimated",
      "name": "Farmacia Smeraldo",
      "ref:vatin": "IT13057020151"
    }
  },
  {
    "type": "node",
    "id": 2154522224,
    "lat": 45.4852736,
    "lon": 9.1937394,
    "tags": {
      "barrier": "gate",
      "bicycle": "yes",
      "entrance": "yes",
      "foot": "yes"
    }
  },
  {
    "type": "node",
    "id": 2157550551,
    "lat": 45.4832209,
    "lon": 9.1944247,
    "tags": {
      "amenity": "bicycle_parking",
      "bicycle_parking": "Verona_rack",
      "capacity": "6"
    }
  },
  {
    "type": "node",
    "id": 2157550552,
    "lat": 45.4840935,
    "lon": 9.1953474,
    "tags": {
      "amenity": "bicycle_parking",
      "bicycle_parking": "stands",
      "capacity": "12",
      "covered": "yes"
    }
  },
  {
    "type": "node",
    "id": 2161119627,
    "lat": 45.4812016,
    "lon": 9.1915463,
    "tags": {
      "amenity": "restaurant",
      "entrance": "main",
      "name": "Ristorante All'Opera"
    }
  },
  {
    "type": "node",
    "id": 2161119650,
    "lat": 45.4805955,
    "lon": 9.1903152,
    "tags": {
      "crossing": "traffic_signals",
      "highway": "crossing"
    }
  },
  {
    "type": "node",
    "id": 2161119651,
    "lat": 45.4806598,
    "lon": 9.1906332,
    "tags": {
      "crossing": "uncontrolled",
      "highway": "crossing"
    }
  },
  {
    "type": "node",
    "id": 2161119657,
    "lat": 45.4813579,
    "lon": 9.1917339,
    "tags": {
      "entrance": "main"
    }
  },
  {
    "type": "node",
    "id": 2192353217,
    "lat": 45.4829508,
    "lon": 9.190758,
    "tags": {
      "amenity": "bicycle_parking",
      "bicycle_parking": "Verona_rack",
      "capacity": "6"
    }
  },
  {
    "type": "node",
    "id": 2203364275,
    "lat": 45.4828245,
    "lon": 9.1898379,
    "tags": {
      "amenity": "taxi"
    }
  },
  {
    "type": "node",
    "id": 2299781966,
    "lat": 45.4803212,
    "lon": 9.1905302,
    "tags": {
      "amenity": "bicycle_parking",
      "bicycle_parking": "Verona_rack",
      "capacity": "5"
    }
  },
  {
    "type": "node",
    "id": 2325712196,
    "lat": 45.4830813,
    "lon": 9.190851,
    "tags": {
      "addr:city": "Milano",
      "addr:country": "IT",
      "addr:housenumber": "8",
      "addr:postcode": "20154",
      "addr:street": "Piazza Gae Aulenti",
      "name": "Muji",
      "shop": "department_store",
      "website": "www.muji.eu"
    }
  },
  {
    "type": "node",
    "id": 2353216950,
    "lat": 45.482937,
    "lon": 9.1903869,
    "tags": {
      "highway": "crossing"
    }
  },
  {
    "type": "node",
    "id": 2380920420,
    "lat": 45.485091,
    "lon": 9.1925549,
    "tags": {
      "addr:housename": "Stecca 3.0",
      "addr:housenumber": "26",
      "addr:postcode": "20124",
      "addr:street": "Via Gaetano De Castillia",
      "name": "Ciclofficina Stecca",
      "shop": "bicycle",
      "website": "http://www.lastecca.org"
    }
  },
  {
    "type": "node",
    "id": 2381386931,
    "lat": 45.485485,
    "lon": 9.1903198,
    "tags": {
      "bicycle": "yes",
      "crossing": "uncontrolled",
      "crossing_ref": "pelican",
      "highway": "crossing"
    }
  },
  {
    "type": "node",
    "id": 2417414836,
    "lat": 45.4803787,
    "lon": 9.1945554,
    "tags": {
      "addr:city": "Milano",
      "addr:country": "IT",
      "addr:housenumber": "13",
      "addr:postcode": "20124",
      "addr:street": "Via Marco Polo",
      "name": "Hotel Trieste",
      "stars": "2",
      "tourism": "hotel"
    }
  },
  {
    "type": "node",
    "id": 2430052864,
    "lat": 45.4802557,
    "lon": 9.1928176,
    "tags": {
      "bus": "yes",
      "name": "Piazzale Principessa Clotilde (Ospedale Oftalmico)",
      "public_transport": "stop_position"
    }
  },
  {
    "type": "node",
    "id": 2430052867,
    "lat": 45.480296,
    "lon": 9.1925411,
    "tags": {
      "bus": "yes",
      "name": "Piazzale Principessa Clotilde (Ospedale Oftalmico)",
      "public_transport": "stop_position",
      "ref": "11859"
    }
  },
  {
    "type": "node",
    "id": 2430052881,
    "lat": 45.4816674,
    "lon": 9.1918869,
    "tags": {
      "bench": "no",
      "highway": "bus_stop",
      "name": "Via Gioia - Via Vespucci",
      "ref": "11606",
      "shelter": "no"
    }
  },
  {
    "type": "node",
    "id": 2430052882,
    "lat": 45.4816992,
    "lon": 9.1918172,
    "tags": {
      "bus": "yes",
      "fixme": "Position estimated",
      "name": "Via Gioia - Via Vespucci",
      "public_transport": "stop_position"
    }
  },
  {
    "type": "node",
    "id": 2430118089,
    "lat": 45.4820807,
    "lon": 9.1919672,
    "tags": {
      "bench": "no",
      "highway": "bus_stop",
      "name": "Via Gioia - Via Vespucci",
      "ref": "11607",
      "shelter": "no"
    }
  },
  {
    "type": "node",
    "id": 2430118091,
    "lat": 45.479675,
    "lon": 9.1942942,
    "tags": {
      "bus": "yes",
      "comment:it": "con indicatore tempo di attesa",
      "name": "Via Monte Santo",
      "public_transport": "stop_position",
      "ref": "11864"
    }
  },
  {
    "type": "node",
    "id": 2476881430,
    "lat": 45.483028,
    "lon": 9.194915,
    "tags": {
      "addr:city": "Milano",
      "addr:country": "IT",
      "addr:housenumber": "24",
      "addr:postcode": "20124",
      "addr:street": "Piazza Luigi Einaudi",
      "amenity": "cafe",
      "name": "Caffè del Principe"
    }
  },
  {
    "type": "node",
    "id": 2476881433,
    "lat": 45.4830332,
    "lon": 9.1945965,
    "tags": {
      "direction": "30",
      "maxspeed": "10",
      "traffic_sign": "maxspeed"
    }
  },
  {
    "type": "node",
    "id": 2476881436,
    "lat": 45.4831411,
    "lon": 9.1947989,
    "tags": {
      "barrier": "swing_gate",
      "opening_hours": "Mo-Fr 07:00-21:30; Sa 07:30-14:00; Su,PH closed"
    }
  },
  {
    "type": "node",
    "id": 2476881438,
    "lat": 45.4831888,
    "lon": 9.1947148,
    "tags": {
      "barrier": "swing_gate",
      "opening_hours": "Mo-Fr 07:00-21:30; Sa 07:30-14:00; Su,PH closed"
    }
  },
  {
    "type": "node",
    "id": 2476920316,
    "lat": 45.4803273,
    "lon": 9.1950955,
    "tags": {
      "addr:city": "Milano",
      "addr:country": "IT",
      "addr:housenumber": "5",
      "addr:postcode": "20124",
      "addr:street": "Via Galileo Galilei",
      "amenity": "parking",
      "fee": "yes",
      "maxheight": "2.1",
      "name": "Autosilo Galileo",
      "opening_hours": "Mo-Sa 07:00-00:30; Su,PH 07:30-13:00, 17:30-00:30",
      "operator": "Comune di Milano",
      "parking": "underground",
      "supervised": "yes"
    }
  },
  {
    "type": "node",
    "id": 2476920317,
    "lat": 45.4802826,
    "lon": 9.1946709,
    "tags": {
      "addr:city": "Milano",
      "addr:country": "IT",
      "addr:housenumber": "13A",
      "addr:postcode": "20124",
      "addr:street": "Via Marco Polo",
      "amenity": "parking_entrance",
      "maxheight": "2.1",
      "opening_hours": "Mo-Sa 07:00-00:30; Su,PH 07:30-13:00,17:30-00:30",
      "operator": "Autosilo Galileo"
    }
  },
  {
    "type": "node",
    "id": 2476920318,
    "lat": 45.4800207,
    "lon": 9.1951544,
    "tags": {
      "crossing": "uncontrolled",
      "highway": "crossing"
    }
  },
  {
    "type": "node",
    "id": 2476920319,
    "lat": 45.4801004,
    "lon": 9.195062,
    "tags": {
      "entrance": "yes"
    }
  },
  {
    "type": "node",
    "id": 2476920320,
    "lat": 45.4801179,
    "lon": 9.195113,
    "tags": {
      "addr:city": "Milano",
      "addr:country": "IT",
      "addr:housenumber": "5",
      "addr:postcode": "20124",
      "addr:street": "Via Galileo Galilei",
      "amenity": "restaurant",
      "cuisine": "italian",
      "email": "info@trecristimilano.com",
      "name": "Tre Cristi",
      "phone": "+39 02 29062923",
      "website": "http://www.trecristimilano.com/"
    }
  },
  {
    "type": "node",
    "id": 2476931148,
    "lat": 45.48293,
    "lon": 9.1952991,
    "tags": {
      "access": "customers",
      "amenity": "parking_entrance",
      "fee": "yes",
      "opening_hours": "Mo-Su 07:00-20:00",
      "operator": "Parking Car",
      "parking": "underground",
      "phone": "+39 02 6705949"
    }
  },
  {
    "type": "node",
    "id": 2483811062,
    "lat": 45.4851454,
    "lon": 9.1937771,
    "tags": {
      "access": "private",
      "barrier": "gate"
    }
  },
  {
    "type": "node",
    "id": 2485358696,
    "lat": 45.4797854,
    "lon": 9.193398,
    "tags": {
      "addr:city": "Milano",
      "addr:country": "IT",
      "addr:housenumber": "8",
      "addr:postcode": "20121",
      "addr:street": "Piazzale Principessa Clotilde"
    }
  },
  {
    "type": "node",
    "id": 2485358765,
    "lat": 45.4794739,
    "lon": 9.1942589,
    "tags": {
      "highway": "crossing"
    }
  },
  {
    "type": "node",
    "id": 2485358791,
    "lat": 45.4797391,
    "lon": 9.1934703,
    "tags": {
      "entrance": "yes",
      "fixme": "Position estimated"
    }
  },
  {
    "type": "node",
    "id": 2485358794,
    "lat": 45.4797467,
    "lon": 9.1933981,
    "tags": {
      "entrance": "yes"
    }
  },
  {
    "type": "node",
    "id": 2485358796,
    "lat": 45.4797598,
    "lon": 9.1934752,
    "tags": {
      "addr:street": "Piazzale Principessa Clotilde",
      "fixme": "Position estimated"
    }
  },
  {
    "type": "node",
    "id": 2488582272,
    "lat": 45.4860031,
    "lon": 9.1939688,
    "tags": {
      "highway": "crossing"
    }
  },
  {
    "type": "node",
    "id": 2491530881,
    "lat": 45.4856305,
    "lon": 9.1916935,
    "tags": {
      "bicycle": "yes",
      "crossing": "uncontrolled",
      "crossing_ref": "pelican",
      "highway": "crossing"
    }
  },
  {
    "type": "node",
    "id": 2491530916,
    "lat": 45.4856213,
    "lon": 9.1915986,
    "tags": {
      "addr:city": "Milano",
      "addr:country": "IT",
      "addr:housenumber": "20",
      "addr:postcode": "20124",
      "addr:street": "Via Gaetano De Castillia",
      "amenity": "bar",
      "email": "hello@cafegorille.it",
      "name": "Cafè Gorille",
      "phone": "+39 02 6887627",
      "website": "http://www.cafegorille.it/"
    }
  },
  {
    "type": "node",
    "id": 2494931748,
    "lat": 45.4810038,
    "lon": 9.1906411,
    "tags": {
      "highway": "crossing"
    }
  },
  {
    "type": "node",
    "id": 2494980682,
    "lat": 45.4796495,
    "lon": 9.1941585,
    "tags": {
      "natural": "tree"
    }
  },
  {
    "type": "node",
    "id": 2511317374,
    "lat": 45.4826408,
    "lon": 9.1895252,
    "tags": {
      "access": "private",
      "amenity": "parking_entrance",
      "layer": "-1",
      "parking": "underground"
    }
  },
  {
    "type": "node",
    "id": 2521227390,
    "lat": 45.4831227,
    "lon": 9.1906151,
    "tags": {
      "addr:city": "Milano",
      "addr:country": "IT",
      "addr:postcode": "20154",
      "addr:street": "Piazza Gae Aulenti",
      "brand": "Nike",
      "name": "Nike Store Porta Nuova",
      "shop": "clothes"
    }
  },
  {
    "type": "node",
    "id": 2559584717,
    "lat": 45.4815613,
    "lon": 9.1946292,
    "tags": {
      "alt_name": "Ex Varesine Milano",
      "name": "Varesine",
      "place": "locality"
    }
  },
  {
    "type": "node",
    "id": 2566864256,
    "lat": 45.483016,
    "lon": 9.1911647,
    "tags": {
      "addr:city": "Milano",
      "addr:country": "IT",
      "addr:housenumber": "8",
      "addr:postcode": "20154",
      "addr:street": "Piazza Gae Aulenti",
      "amenity": "ice_cream",
      "name": "Grom",
      "phone": "+39 02 63793431",
      "website": "http://www.grom.it"
    }
  },
  {
    "type": "node",
    "id": 2609482594,
    "lat": 45.4803446,
    "lon": 9.192204,
    "tags": {
      "highway": "crossing"
    }
  },
  {
    "type": "node",
    "id": 2609495417,
    "lat": 45.4807527,
    "lon": 9.1907326,
    "tags": {
      "highway": "crossing"
    }
  },
  {
    "type": "node",
    "id": 2613616016,
    "lat": 45.4829955,
    "lon": 9.1933782,
    "tags": {
      "crossing": "traffic_signals",
      "highway": "crossing"
    }
  },
  {
    "type": "node",
    "id": 2613616024,
    "lat": 45.4827828,
    "lon": 9.1931476,
    "tags": {
      "crossing": "traffic_signals",
      "highway": "crossing"
    }
  },
  {
    "type": "node",
    "id": 2613616032,
    "lat": 45.4828584,
    "lon": 9.1928241,
    "tags": {
      "barrier": "bollard"
    }
  },
  {
    "type": "node",
    "id": 2613616036,
    "lat": 45.4830397,
    "lon": 9.1930896,
    "tags": {
      "crossing": "traffic_signals",
      "highway": "crossing"
    }
  },
  {
    "type": "node",
    "id": 2613616047,
    "lat": 45.4827042,
    "lon": 9.1932088,
    "tags": {
      "crossing": "uncontrolled",
      "crossing_ref": "zebra",
      "highway": "crossing"
    }
  },
  {
    "type": "node",
    "id": 2613616054,
    "lat": 45.4827025,
    "lon": 9.1932678,
    "tags": {
      "bicycle": "yes",
      "highway": "crossing"
    }
  },
  {
    "type": "node",
    "id": 2613616057,
    "lat": 45.4830669,
    "lon": 9.1932443,
    "tags": {
      "crossing": "traffic_signals",
      "highway": "crossing"
    }
  },
  {
    "type": "node",
    "id": 2613616072,
    "lat": 45.4828475,
    "lon": 9.1930074,
    "tags": {
      "crossing": "traffic_signals",
      "highway": "crossing"
    }
  },
  {
    "type": "node",
    "id": 2613616076,
    "lat": 45.482891,
    "lon": 9.1928648,
    "tags": {
      "crossing": "uncontrolled",
      "highway": "crossing"
    }
  },
  {
    "type": "node",
    "id": 2613616078,
    "lat": 45.4831203,
    "lon": 9.1930031,
    "tags": {
      "highway": "give_way"
    }
  },
  {
    "type": "node",
    "id": 2613616084,
    "lat": 45.4829563,
    "lon": 9.1930023,
    "tags": {
      "crossing": "traffic_signals",
      "highway": "crossing"
    }
  },
  {
    "type": "node",
    "id": 2617880183,
    "lat": 45.4799229,
    "lon": 9.1930662,
    "tags": {
      "bench": "yes",
      "highway": "bus_stop",
      "name": "Piazzale Principessa Clotilde (Ospedale Fatebenefratelli)",
      "operator": "ATM",
      "ref": "11861",
      "shelter": "yes"
    }
  },
  {
    "type": "node",
    "id": 2619696033,
    "lat": 45.4838945,
    "lon": 9.1914442,
    "tags": {
      "access": "customers",
      "amenity": "parking_entrance",
      "covered": "yes",
      "fee": "yes",
      "lit": "yes",
      "name": "Parcheggio Esselunga",
      "parking": "underground",
      "supervised": "no",
      "surface": "concrete"
    }
  },
  {
    "type": "node",
    "id": 2619696041,
    "lat": 45.4838023,
    "lon": 9.1912318,
    "tags": {
      "highway": "give_way"
    }
  },
  {
    "type": "node",
    "id": 2619696058,
    "lat": 45.4839572,
    "lon": 9.1912202,
    "tags": {
      "fixme": "to be continued"
    }
  },
  {
    "type": "node",
    "id": 2619705362,
    "lat": 45.4838309,
    "lon": 9.1906395,
    "tags": {
      "access": "customers",
      "amenity": "parking_entrance",
      "covered": "yes",
      "fee": "yes",
      "lit": "yes",
      "name": "Parcheggio Esselunga",
      "parking": "underground",
      "supervised": "no",
      "surface": "concrete"
    }
  },
  {
    "type": "node",
    "id": 2619705363,
    "lat": 45.4831891,
    "lon": 9.1923634,
    "tags": {
      "emergency": "fire_hydrant",
      "fire_hydrant:position": "sidewalk",
      "fire_hydrant:type": "wall"
    }
  },
  {
    "type": "node",
    "id": 2619705364,
    "lat": 45.4832286,
    "lon": 9.192666,
    "tags": {
      "emergency": "fire_hydrant",
      "fire_hydrant:position": "sidewalk",
      "fire_hydrant:type": "wall"
    }
  },
  {
    "type": "node",
    "id": 2619705366,
    "lat": 45.4832566,
    "lon": 9.1921077,
    "tags": {
      "barrier": "entrance",
      "highway": "emergency_access_point"
    }
  },
  {
    "type": "node",
    "id": 2619705369,
    "lat": 45.4837175,
    "lon": 9.1910291,
    "tags": {
      "highway": "give_way"
    }
  },
  {
    "type": "node",
    "id": 2619705378,
    "lat": 45.4838351,
    "lon": 9.1907111,
    "tags": {
      "man_made": "surveillance",
      "surveillance": "public"
    }
  },
  {
    "type": "node",
    "id": 2619705380,
    "lat": 45.483845,
    "lon": 9.1906841,
    "tags": {
      "emergency": "fire_hydrant",
      "fire_hydrant:position": "sidewalk",
      "fire_hydrant:type": "wall"
    }
  },
  {
    "type": "node",
    "id": 2619705381,
    "lat": 45.4838824,
    "lon": 9.1906022,
    "tags": {
      "highway": "speed_camera"
    }
  },
  {
    "type": "node",
    "id": 2619705382,
    "lat": 45.483905,
    "lon": 9.1908729,
    "tags": {
      "emergency": "fire_hydrant",
      "fire_hydrant:position": "sidewalk",
      "fire_hydrant:type": "wall"
    }
  },
  {
    "type": "node",
    "id": 2622392120,
    "lat": 45.4812671,
    "lon": 9.197023,
    "tags": {
      "bicycle": "yes",
      "highway": "crossing"
    }
  },
  {
    "type": "node",
    "id": 2625350087,
    "lat": 45.4807854,
    "lon": 9.1882439,
    "tags": {
      "highway": "crossing"
    }
  },
  {
    "type": "node",
    "id": 2625350088,
    "lat": 45.4804367,
    "lon": 9.1942456,
    "tags": {
      "crossing": "zebra",
      "highway": "crossing"
    }
  },
  {
    "type": "node",
    "id": 2625350089,
    "lat": 45.4808996,
    "lon": 9.1882772,
    "tags": {
      "highway": "crossing"
    }
  },
  {
    "type": "node",
    "id": 2625350092,
    "lat": 45.4804066,
    "lon": 9.1941603,
    "tags": {
      "crossing": "zebra",
      "highway": "crossing"
    }
  },
  {
    "type": "node",
    "id": 2625350094,
    "lat": 45.4796608,
    "lon": 9.1945146,
    "tags": {
      "highway": "crossing"
    }
  },
  {
    "type": "node",
    "id": 2659099573,
    "lat": 45.4804959,
    "lon": 9.1875274,
    "tags": {
      "highway": "crossing",
      "traffic_calming": "bump"
    }
  },
  {
    "type": "node",
    "id": 2683990457,
    "lat": 45.4856558,
    "lon": 9.1916886,
    "tags": {
      "bicycle": "yes",
      "crossing": "uncontrolled",
      "crossing_ref": "pelican",
      "highway": "crossing"
    }
  },
  {
    "type": "node",
    "id": 2698624849,
    "lat": 45.4855777,
    "lon": 9.192877,
    "tags": {
      "amenity": "drinking_water",
      "fixme": "Position estimated"
    }
  },
  {
    "type": "node",
    "id": 2699728186,
    "lat": 45.4796633,
    "lon": 9.1942847,
    "tags": {
      "bench": "no",
      "comment:it": "con indicatore tempo di attesa",
      "name": "Viale Monte Santo",
      "public_transport": "stop_position",
      "railway": "tram_stop",
      "ref": "11864",
      "shelter": "no",
      "tram": "yes"
    }
  },
  {
    "type": "node",
    "id": 2699728187,
    "lat": 45.4802409,
    "lon": 9.1928139,
    "tags": {
      "bench": "yes",
      "name": "Piazzale Principessa Clotilde (Ospedale Fatebenefratelli)",
      "public_transport": "stop_position",
      "railway": "tram_stop",
      "ref": "11860",
      "shelter": "yes",
      "tram": "yes"
    }
  },
  {
    "type": "node",
    "id": 2699728188,
    "lat": 45.4803095,
    "lon": 9.1925463,
    "tags": {
      "bench": "yes",
      "name": "Piazzale Principessa Clotilde (Ospedale Fatebenefratelli)",
      "public_transport": "stop_position",
      "railway": "tram_stop",
      "ref": "11859",
      "shelter": "yes",
      "tram": "yes"
    }
  },
  {
    "type": "node",
    "id": 2699730643,
    "lat": 45.4807223,
    "lon": 9.1900456,
    "tags": {
      "bench": "yes",
      "fixme": "Position Approximate",
      "name": "Viale Monte Grappa - Via Gioia",
      "passenger_information_display": "no",
      "public_transport": "stop_position",
      "railway": "tram_stop",
      "ref": "17331",
      "shelter": "yes",
      "tram": "yes"
    }
  },
  {
    "type": "node",
    "id": 2699736637,
    "lat": 45.4807963,
    "lon": 9.1890703,
    "tags": {
      "bench": "yes",
      "fixme": "Position Approximate",
      "name": "Viale Monte Grappa - Via Gioia",
      "passenger_information_display": "no",
      "public_transport": "stop_position",
      "railway": "tram_stop",
      "ref": "17324",
      "shelter": "yes",
      "tram": "yes"
    }
  },
  {
    "type": "node",
    "id": 2699737797,
    "lat": 45.4815593,
    "lon": 9.1884361,
    "tags": {
      "disused:fixme": "Position Approximate",
      "disused:name": "Via Rosales",
      "disused:railway": "tram_stop",
      "disused:ref": "17325"
    }
  },
  {
    "type": "node",
    "id": 2711706935,
    "lat": 45.4796565,
    "lon": 9.1942777,
    "tags": {
      "bench": "no",
      "comment:it": "con indicatore tempo di attesa",
      "name": "Viale Monte Santo",
      "public_transport": "platform",
      "ref": "11864",
      "shelter": "no"
    }
  },
  {
    "type": "node",
    "id": 2718040340,
    "lat": 45.4811768,
    "lon": 9.1966531,
    "tags": {
      "crossing": "traffic_signals",
      "highway": "crossing"
    }
  },
  {
    "type": "node",
    "id": 2724084282,
    "lat": 45.4830301,
    "lon": 9.1904928,
    "tags": {
      "addr:city": "Milano",
      "addr:country": "IT",
      "addr:housenumber": "22",
      "addr:postcode": "20154",
      "addr:street": "Via Fratelli Castiglioni",
      "name": "Alexander McQueen",
      "shop": "shoes"
    }
  },
  {
    "type": "node",
    "id": 2724084311,
    "lat": 45.4819539,
    "lon": 9.1884911,
    "tags": {
      "highway": "crossing"
    }
  },
  {
    "type": "node",
    "id": 2724084317,
    "lat": 45.4819644,
    "lon": 9.1886147,
    "tags": {
      "highway": "crossing"
    }
  },
  {
    "type": "node",
    "id": 2724084337,
    "lat": 45.4820976,
    "lon": 9.1885204,
    "tags": {
      "highway": "crossing"
    }
  },
  {
    "type": "node",
    "id": 2724084339,
    "lat": 45.4826511,
    "lon": 9.1911109,
    "tags": {
      "amenity": "bench",
      "backrest": "yes"
    }
  },
  {
    "type": "node",
    "id": 2724084340,
    "lat": 45.4826603,
    "lon": 9.1910646,
    "tags": {
      "amenity": "bench",
      "backrest": "yes"
    }
  },
  {
    "type": "node",
    "id": 2724084341,
    "lat": 45.4826964,
    "lon": 9.1893616,
    "tags": {
      "amenity": "waste_basket"
    }
  },
  {
    "type": "node",
    "id": 2724084344,
    "lat": 45.4826881,
    "lon": 9.191025,
    "tags": {
      "amenity": "bench",
      "backrest": "yes"
    }
  },
  {
    "type": "node",
    "id": 2724112980,
    "lat": 45.4823018,
    "lon": 9.1897389,
    "tags": {
      "addr:city": "Milano",
      "addr:country": "IT",
      "addr:housenumber": "6",
      "addr:postcode": "20124",
      "addr:street": "Via Francesco Viganò",
      "club": "charity",
      "leisure": "club",
      "name": "Lega Italiana per la Lotta contro i Tumori",
      "short_name": "LILT",
      "website": "http://www.legatumori.mi.it/"
    }
  },
  {
    "type": "node",
    "id": 2724112981,
    "lat": 45.4819975,
    "lon": 9.1897703,
    "tags": {
      "addr:city": "Milano",
      "addr:country": "IT",
      "addr:housenumber": "4",
      "addr:postcode": "20124",
      "addr:street": "Via Francesco Viganò",
      "amenity": "bar",
      "name": "Music Viga Bar"
    }
  },
  {
    "type": "node",
    "id": 2724112982,
    "lat": 45.4815356,
    "lon": 9.1894669,
    "tags": {
      "addr:city": "Milano",
      "addr:country": "IT",
      "addr:housenumber": "10",
      "addr:postcode": "20124",
      "addr:street": "Via Carlo De Cristoforis"
    }
  },
  {
    "type": "node",
    "id": 2724112986,
    "lat": 45.482149,
    "lon": 9.1897487,
    "tags": {
      "addr:city": "Milano",
      "addr:country": "IT",
      "addr:housenumber": "4",
      "addr:postcode": "20124",
      "addr:street": "Via Francesco Viganò"
    }
  },
  {
    "type": "node",
    "id": 2724113003,
    "lat": 45.4824299,
    "lon": 9.189729,
    "tags": {
      "addr:city": "Milano",
      "addr:country": "IT",
      "addr:housenumber": "8",
      "addr:postcode": "20124",
      "addr:street": "Via Francesco Viganò"
    }
  },
  {
    "type": "node",
    "id": 2724113019,
    "lat": 45.4827927,
    "lon": 9.1912279,
    "tags": {
      "access": "customers",
      "access:fuel:lpg": "no",
      "amenity": "parking",
      "maxheight": "2.1",
      "name": "Parcheggio Esselunga",
      "parking": "underground"
    }
  },
  {
    "type": "node",
    "id": 2724113037,
    "lat": 45.4815991,
    "lon": 9.1895955,
    "tags": {
      "amenity": "waste_basket"
    }
  },
  {
    "type": "node",
    "id": 2724113051,
    "lat": 45.4816615,
    "lon": 9.1894205,
    "tags": {
      "amenity": "waste_basket"
    }
  },
  {
    "type": "node",
    "id": 2724113368,
    "lat": 45.4823235,
    "lon": 9.1894011,
    "tags": {
      "amenity": "waste_basket"
    }
  },
  {
    "type": "node",
    "id": 2724139065,
    "lat": 45.481617,
    "lon": 9.1888149,
    "tags": {
      "addr:city": "Milano",
      "addr:country": "IT",
      "addr:housenumber": "6",
      "addr:postcode": "20124",
      "addr:street": "Via Carlo De Cristoforis",
      "email": "info.thebig@atahotels.it",
      "name": "Atahotel The Big",
      "operator": "Atahotel",
      "phone": "+39 02 63511",
      "stars": "4",
      "tourism": "hotel",
      "website": "http://www.atahotels.it/the-big/"
    }
  },
  {
    "type": "node",
    "id": 2724139099,
    "lat": 45.4813727,
    "lon": 9.1885426,
    "tags": {
      "addr:city": "Milano",
      "addr:country": "IT",
      "addr:housenumber": "4",
      "addr:postcode": "20124",
      "addr:street": "Via Gaspare Rosales"
    }
  },
  {
    "type": "node",
    "id": 2724139137,
    "lat": 45.4816225,
    "lon": 9.189192,
    "tags": {
      "addr:city": "Milano",
      "addr:country": "IT",
      "addr:housenumber": "8",
      "addr:postcode": "20124",
      "addr:street": "Via Carlo De Cristoforis"
    }
  },
  {
    "type": "node",
    "id": 2724139156,
    "lat": 45.4811442,
    "lon": 9.188507,
    "tags": {
      "addr:city": "Milano",
      "addr:country": "IT",
      "addr:housenumber": "4",
      "addr:postcode": "20124",
      "addr:street": "Via Gaspare Rosales",
      "amenity": "restaurant",
      "cuisine": "japanese",
      "email": "info@origami-milano.com",
      "name": "Origami",
      "phone": "+39 02 62694008",
      "website": "http://www.origami-milano.com/"
    }
  },
  {
    "type": "node",
    "id": 2724139175,
    "lat": 45.4816459,
    "lon": 9.1886205,
    "tags": {
      "addr:city": "Milano",
      "addr:country": "IT",
      "addr:housenumber": "6",
      "addr:postcode": "20124",
      "addr:street": "Via Carlo De Cristoforis",
      "amenity": "bar",
      "name": "The Big Bar"
    }
  },
  {
    "type": "node",
    "id": 2724139186,
    "lat": 45.4816655,
    "lon": 9.1891998,
    "tags": {
      "amenity": "parking",
      "fee": "yes",
      "maxheight": "2.2",
      "name": "The Big Parking",
      "parking": "underground",
      "supervised": "yes"
    }
  },
  {
    "type": "node",
    "id": 2724139204,
    "lat": 45.4812737,
    "lon": 9.188472,
    "tags": {
      "entrance": "main"
    }
  },
  {
    "type": "node",
    "id": 2724139235,
    "lat": 45.481553,
    "lon": 9.1884753,
    "tags": {
      "amenity": "waste_basket"
    }
  },
  {
    "type": "node",
    "id": 2724139276,
    "lat": 45.4816607,
    "lon": 9.1888007,
    "tags": {
      "entrance": "main"
    }
  },
  {
    "type": "node",
    "id": 2724139279,
    "lat": 45.482032,
    "lon": 9.1885739,
    "tags": {
      "amenity": "waste_basket"
    }
  },
  {
    "type": "node",
    "id": 2724139304,
    "lat": 45.4827362,
    "lon": 9.188731,
    "tags": {
      "amenity": "waste_basket"
    }
  },
  {
    "type": "node",
    "id": 2739493100,
    "lat": 45.4818601,
    "lon": 9.1923252,
    "tags": {
      "highway": "crossing"
    }
  },
  {
    "type": "node",
    "id": 2748445954,
    "lat": 45.4811812,
    "lon": 9.1913529,
    "tags": {
      "bicycle": "yes",
      "highway": "crossing"
    }
  },
  {
    "type": "node",
    "id": 2845994177,
    "lat": 45.4803933,
    "lon": 9.193617,
    "tags": {
      "name": "Porta Nuova",
      "place": "neighbourhood"
    }
  },
  {
    "type": "node",
    "id": 2866153254,
    "lat": 45.4807074,
    "lon": 9.189327,
    "tags": {
      "note": "Pensilina fermata trram in costruzione. Posizione approssimata"
    }
  },
  {
    "type": "node",
    "id": 2866153255,
    "lat": 45.4808473,
    "lon": 9.1893486,
    "tags": {
      "note": "Pensilina fermata trram in costruzione. Posizione approssimata"
    }
  },
  {
    "type": "node",
    "id": 2869913466,
    "lat": 45.4818622,
    "lon": 9.1931006,
    "tags": {
      "highway": "elevator"
    }
  },
  {
    "type": "node",
    "id": 2869913467,
    "lat": 45.4826524,
    "lon": 9.192482,
    "tags": {
      "highway": "elevator"
    }
  },
  {
    "type": "node",
    "id": 2876056107,
    "lat": 45.4815859,
    "lon": 9.1933535,
    "tags": {
      "highway": "crossing"
    }
  },
  {
    "type": "node",
    "id": 2880766790,
    "lat": 45.4803853,
    "lon": 9.1903642,
    "tags": {
      "amenity": "drinking_water"
    }
  },
  {
    "type": "node",
    "id": 2883006771,
    "lat": 45.4817097,
    "lon": 9.1943329,
    "tags": {
      "highway": "elevator"
    }
  },
  {
    "type": "node",
    "id": 2888123089,
    "lat": 45.4818997,
    "lon": 9.1923245,
    "tags": {
      "crossing_ref": "zebra",
      "highway": "crossing"
    }
  },
  {
    "type": "node",
    "id": 2888129005,
    "lat": 45.482058,
    "lon": 9.1922463,
    "tags": {
      "bicycle": "yes",
      "crossing": "traffic_signals",
      "highway": "crossing"
    }
  },
  {
    "type": "node",
    "id": 2888129008,
    "lat": 45.4821532,
    "lon": 9.192351,
    "tags": {
      "bicycle": "yes",
      "crossing": "traffic_signals",
      "highway": "crossing"
    }
  },
  {
    "type": "node",
    "id": 2888129010,
    "lat": 45.4821172,
    "lon": 9.1921429,
    "tags": {
      "bicycle": "yes",
      "crossing": "traffic_signals",
      "highway": "crossing"
    }
  },
  {
    "type": "node",
    "id": 2888129014,
    "lat": 45.4822165,
    "lon": 9.192262,
    "tags": {
      "bicycle": "yes",
      "crossing": "traffic_signals",
      "highway": "crossing"
    }
  },
  {
    "type": "node",
    "id": 2889871253,
    "lat": 45.4803054,
    "lon": 9.196301,
    "tags": {
      "crossing": "traffic_signals",
      "crossing_ref": "zebra",
      "highway": "crossing"
    }
  },
  {
    "type": "node",
    "id": 2889871259,
    "lat": 45.4804449,
    "lon": 9.1961715,
    "tags": {
      "crossing": "traffic_signals",
      "highway": "crossing"
    }
  },
  {
    "type": "node",
    "id": 2889871274,
    "lat": 45.4806818,
    "lon": 9.1966241,
    "tags": {
      "bicycle": "yes",
      "crossing": "traffic_signals",
      "crossing_ref": "zebra",
      "highway": "crossing"
    }
  },
  {
    "type": "node",
    "id": 2889871275,
    "lat": 45.4806908,
    "lon": 9.1965792,
    "tags": {
      "bicycle": "yes",
      "crossing": "traffic_signals",
      "crossing_ref": "zebra",
      "highway": "crossing"
    }
  },
  {
    "type": "node",
    "id": 2889871299,
    "lat": 45.4826609,
    "lon": 9.193214,
    "tags": {
      "crossing": "uncontrolled",
      "crossing_ref": "zebra",
      "highway": "crossing"
    }
  },
  {
    "type": "node",
    "id": 2889872101,
    "lat": 45.4828154,
    "lon": 9.1932756,
    "tags": {
      "crossing": "traffic_signals",
      "crossing_ref": "zebra",
      "highway": "crossing"
    }
  },
  {
    "type": "node",
    "id": 2889872102,
    "lat": 45.4828961,
    "lon": 9.1933688,
    "tags": {
      "crossing": "traffic_signals",
      "crossing_ref": "zebra",
      "highway": "crossing"
    }
  },
  {
    "type": "node",
    "id": 2890631715,
    "lat": 45.4819691,
    "lon": 9.1923855,
    "tags": {
      "crossing": "uncontrolled",
      "crossing_ref": "zebra",
      "highway": "crossing"
    }
  },
  {
    "type": "node",
    "id": 2890631718,
    "lat": 45.4820589,
    "lon": 9.1925078,
    "tags": {
      "crossing": "uncontrolled",
      "crossing_ref": "zebra",
      "highway": "crossing"
    }
  },
  {
    "type": "node",
    "id": 2890631726,
    "lat": 45.4824773,
    "lon": 9.1932363,
    "tags": {
      "amenity": "bicycle_parking",
      "bicycle_parking": "Verona_rack",
      "capacity": "15",
      "layer": "1"
    }
  },
  {
    "type": "node",
    "id": 2907518644,
    "lat": 45.4808181,
    "lon": 9.1880992,
    "tags": {
      "amenity": "bicycle_parking",
      "bicycle_parking": "stands",
      "capacity": "22"
    }
  },
  {
    "type": "node",
    "id": 2907518651,
    "lat": 45.4808472,
    "lon": 9.1880963,
    "tags": {
      "amenity": "motorcycle_parking",
      "capacity": "10",
      "fee": "no",
      "parking": "surface"
    }
  },
  {
    "type": "node",
    "id": 2915633266,
    "lat": 45.4831631,
    "lon": 9.1910362,
    "tags": {
      "amenity": "bicycle_parking",
      "bicycle_parking": "Verona_rack",
      "capacity": "10"
    }
  },
  {
    "type": "node",
    "id": 2935633735,
    "lat": 45.4830639,
    "lon": 9.1910254,
    "tags": {
      "addr:city": "Milano",
      "addr:country": "IT",
      "addr:housenumber": "8",
      "addr:postcode": "20154",
      "addr:street": "Piazza Gae Aulenti",
      "email": "gaeaulenti@otticabergomi.it",
      "name": "Ottica Bergomi",
      "phone": "+39 02 62694970",
      "shop": "optician"
    }
  },
  {
    "type": "node",
    "id": 2981540249,
    "lat": 45.4806461,
    "lon": 9.1966028,
    "tags": {
      "bicycle": "yes",
      "crossing": "traffic_signals",
      "crossing_ref": "zebra",
      "highway": "crossing"
    }
  },
  {
    "type": "node",
    "id": 2981540250,
    "lat": 45.4806562,
    "lon": 9.1965463,
    "tags": {
      "bicycle": "yes",
      "crossing": "traffic_signals",
      "crossing_ref": "zebra",
      "highway": "crossing"
    }
  },
  {
    "type": "node",
    "id": 2992556286,
    "lat": 45.4802853,
    "lon": 9.1962823,
    "tags": {
      "comment:it": "obbligo di andare dritto eccetto bus",
      "traffic_sign": "yes"
    }
  },
  {
    "type": "node",
    "id": 2992556287,
    "lat": 45.480364,
    "lon": 9.195955,
    "tags": {
      "highway": "give_way"
    }
  },
  {
    "type": "node",
    "id": 3078957880,
    "lat": 45.4810339,
    "lon": 9.1907198,
    "tags": {
      "amenity": "waste_basket"
    }
  },
  {
    "type": "node",
    "id": 3078957887,
    "lat": 45.4833443,
    "lon": 9.1906592,
    "tags": {
      "emergency": "fire_hydrant"
    }
  },
  {
    "type": "node",
    "id": 3078963340,
    "lat": 45.4806695,
    "lon": 9.1887328,
    "tags": {
      "addr:city": "Milano",
      "addr:country": "IT",
      "addr:housenumber": "9",
      "addr:postcode": "20124",
      "addr:street": "Viale Monte Grappa",
      "amenity": "restaurant",
      "cuisine": "regional",
      "email": "info@curoristorante.it",
      "name": "Curò Ristorante",
      "opening_hours": "Mo-Su 11:30-15:00,19:00-24:00",
      "phone": "+39 02 58109056",
      "website": "http://www.curoristorante.it/"
    }
  },
  {
    "type": "node",
    "id": 3078963341,
    "lat": 45.4812172,
    "lon": 9.1904478,
    "tags": {
      "addr:city": "Milano",
      "addr:country": "IT",
      "addr:housenumber": "15",
      "addr:postcode": "20124",
      "addr:street": "Via Carlo De Cristoforis",
      "name": "Nail Saloon Corso Como",
      "shop": "beauty"
    }
  },
  {
    "type": "node",
    "id": 3078963342,
    "lat": 45.4814266,
    "lon": 9.1897189,
    "tags": {
      "addr:city": "Milano",
      "addr:country": "IT",
      "addr:housenumber": "12",
      "addr:postcode": "20124",
      "addr:street": "Via Carlo De Cristoforis"
    }
  },
  {
    "type": "node",
    "id": 3078963343,
    "lat": 45.4811571,
    "lon": 9.1905566,
    "tags": {
      "addr:city": "Milano",
      "addr:country": "IT",
      "addr:housenumber": "15",
      "addr:postcode": "20124",
      "addr:street": "Via Carlo De Cristoforis",
      "shop": "tobacco"
    }
  },
  {
    "type": "node",
    "id": 3078963349,
    "lat": 45.4806708,
    "lon": 9.1886125,
    "tags": {
      "addr:city": "Milano",
      "addr:country": "IT",
      "addr:housenumber": "9",
      "addr:postcode": "20124",
      "addr:street": "Viale Monte Grappa",
      "name": "Petit Bateau",
      "shop": "clothes"
    }
  },
  {
    "type": "node",
    "id": 3078972718,
    "lat": 45.4809224,
    "lon": 9.1887328,
    "tags": {
      "addr:city": "Milano",
      "addr:country": "IT",
      "addr:housenumber": "18",
      "addr:postcode": "20124",
      "addr:street": "Viale Monte Grappa",
      "amenity": "pub",
      "name": "Lucky Actors"
    }
  },
  {
    "type": "node",
    "id": 3078972719,
    "lat": 45.4806141,
    "lon": 9.1896966,
    "tags": {
      "addr:city": "Milano",
      "addr:country": "IT",
      "addr:housenumber": "1",
      "addr:postcode": "20124",
      "addr:street": "Viale Monte Grappa"
    }
  },
  {
    "type": "node",
    "id": 3078972720,
    "lat": 45.4812695,
    "lon": 9.1900355,
    "tags": {
      "addr:city": "Milano",
      "addr:country": "IT",
      "addr:housenumber": "14",
      "addr:postcode": "20124",
      "addr:street": "Via Carlo De Cristoforis"
    }
  },
  {
    "type": "node",
    "id": 3078973137,
    "lat": 45.4813508,
    "lon": 9.1898898,
    "tags": {
      "addr:city": "Milano",
      "addr:country": "IT",
      "addr:housenumber": "12",
      "addr:postcode": "20124",
      "addr:street": "Via Carlo De Cristoforis",
      "amenity": "cafe",
      "name": "Basic Cafè"
    }
  },
  {
    "type": "node",
    "id": 3078973138,
    "lat": 45.4815028,
    "lon": 9.189883,
    "tags": {
      "addr:city": "Milano",
      "addr:country": "IT",
      "addr:housenumber": "13",
      "addr:postcode": "20124",
      "addr:street": "Via Carlo De Cristoforis"
    }
  },
  {
    "type": "node",
    "id": 3078973140,
    "lat": 45.4808922,
    "lon": 9.1929245,
    "tags": {
      "highway": "crossing"
    }
  },
  {
    "type": "node",
    "id": 3078973141,
    "lat": 45.4810232,
    "lon": 9.1900767,
    "tags": {
      "entrance": "main"
    }
  },
  {
    "type": "node",
    "id": 3078973265,
    "lat": 45.4808881,
    "lon": 9.1891987,
    "tags": {
      "addr:city": "Milano",
      "addr:country": "IT",
      "addr:housenumber": "16",
      "addr:postcode": "20124",
      "addr:street": "Viale Monte Grappa"
    }
  },
  {
    "type": "node",
    "id": 3078973266,
    "lat": 45.4809092,
    "lon": 9.1888361,
    "tags": {
      "addr:city": "Milano",
      "addr:country": "IT",
      "addr:housenumber": "18",
      "addr:postcode": "20124",
      "addr:street": "Viale Monte Grappa"
    }
  },
  {
    "type": "node",
    "id": 3078973267,
    "lat": 45.480626,
    "lon": 9.1894974,
    "tags": {
      "addr:city": "Milano",
      "addr:country": "IT",
      "addr:housenumber": "3",
      "addr:postcode": "20124",
      "addr:street": "Viale Monte Grappa"
    }
  },
  {
    "type": "node",
    "id": 3078973268,
    "lat": 45.4806352,
    "lon": 9.1893077,
    "tags": {
      "addr:city": "Milano",
      "addr:country": "IT",
      "addr:housenumber": "5",
      "addr:postcode": "20124",
      "addr:street": "Viale Monte Grappa"
    }
  },
  {
    "type": "node",
    "id": 3078973269,
    "lat": 45.480676,
    "lon": 9.1888135,
    "tags": {
      "addr:city": "Milano",
      "addr:country": "IT",
      "addr:housenumber": "7",
      "addr:postcode": "20124",
      "addr:street": "Viale Monte Grappa"
    }
  },
  {
    "type": "node",
    "id": 3078973270,
    "lat": 45.4808816,
    "lon": 9.18955,
    "tags": {
      "addr:city": "Milano",
      "addr:country": "IT",
      "addr:housenumber": "14",
      "addr:postcode": "20124",
      "addr:street": "Viale Monte Grappa",
      "amenity": "nightclub",
      "name": "Privilege"
    }
  },
  {
    "type": "node",
    "id": 3078973271,
    "lat": 45.4809079,
    "lon": 9.1889601,
    "tags": {
      "addr:city": "Milano",
      "addr:country": "IT",
      "addr:housenumber": "18",
      "addr:postcode": "20124",
      "addr:street": "Viale Monte Grappa",
      "amenity": "restaurant",
      "cuisine": "regional",
      "email": "info@sciattaporter.com",
      "name": "Sciatt a Porter",
      "opening_hours": "Tu-Su 12:00-15:00,18:30-24:00",
      "phone": "+39 02 63470524",
      "website": "http://www.sciattaporter.com/"
    }
  },
  {
    "type": "node",
    "id": 3078973273,
    "lat": 45.4832475,
    "lon": 9.1910018,
    "tags": {
      "amenity": "waste_basket"
    }
  },
  {
    "type": "node",
    "id": 3078973564,
    "lat": 45.4809281,
    "lon": 9.190435,
    "tags": {
      "entrance": "main"
    }
  },
  {
    "type": "node",
    "id": 3078995990,
    "lat": 45.4820792,
    "lon": 9.1919221,
    "tags": {
      "addr:city": "Milano",
      "addr:country": "IT",
      "addr:housenumber": "7",
      "addr:postcode": "20124",
      "addr:street": "Via Melchiorre Gioia"
    }
  },
  {
    "type": "node",
    "id": 3078995992,
    "lat": 45.4816943,
    "lon": 9.1915051,
    "tags": {
      "amenity": "waste_basket"
    }
  },
  {
    "type": "node",
    "id": 3078995994,
    "lat": 45.4817979,
    "lon": 9.192043,
    "tags": {
      "amenity": "waste_basket"
    }
  },
  {
    "type": "node",
    "id": 3078995996,
    "lat": 45.4819577,
    "lon": 9.1917963,
    "tags": {
      "amenity": "waste_basket"
    }
  },
  {
    "type": "node",
    "id": 3078996368,
    "lat": 45.4813881,
    "lon": 9.1910586,
    "tags": {
      "addr:city": "Milano",
      "addr:country": "IT",
      "addr:housenumber": "1",
      "addr:postcode": "20124",
      "addr:street": "Via Melchiorre Gioia"
    }
  },
  {
    "type": "node",
    "id": 3078996369,
    "lat": 45.4814849,
    "lon": 9.1911649,
    "tags": {
      "addr:city": "Milano",
      "addr:country": "IT",
      "addr:housenumber": "3",
      "addr:postcode": "20124",
      "addr:street": "Via Melchiorre Gioia"
    }
  },
  {
    "type": "node",
    "id": 3079032928,
    "lat": 45.4808798,
    "lon": 9.1934774,
    "tags": {
      "addr:city": "Milano",
      "addr:country": "IT",
      "addr:housenumber": "5",
      "addr:postcode": "20124",
      "addr:street": "Via Marco Polo"
    }
  },
  {
    "type": "node",
    "id": 3079032929,
    "lat": 45.4822148,
    "lon": 9.193256,
    "tags": {
      "amenity": "bench",
      "backrest": "no"
    }
  },
  {
    "type": "node",
    "id": 3079032930,
    "lat": 45.4824236,
    "lon": 9.1930431,
    "tags": {
      "amenity": "waste_basket"
    }
  },
  {
    "type": "node",
    "id": 3079032931,
    "lat": 45.482471,
    "lon": 9.1930521,
    "tags": {
      "amenity": "bench",
      "backrest": "no"
    }
  },
  {
    "type": "node",
    "id": 3079034045,
    "lat": 45.4804742,
    "lon": 9.1943193,
    "tags": {
      "addr:city": "Milano",
      "addr:country": "IT",
      "addr:housenumber": "11",
      "addr:postcode": "20124",
      "addr:street": "Via Marco Polo"
    }
  },
  {
    "type": "node",
    "id": 3079034046,
    "lat": 45.4808395,
    "lon": 9.1926989,
    "tags": {
      "addr:city": "Milano",
      "addr:country": "IT",
      "addr:housenumber": "3",
      "addr:postcode": "20124",
      "addr:street": "Via Amerigo Vespucci"
    }
  },
  {
    "type": "node",
    "id": 3079034047,
    "lat": 45.4808333,
    "lon": 9.1931745,
    "tags": {
      "addr:city": "Milano",
      "addr:country": "IT",
      "addr:housenumber": "4",
      "addr:postcode": "20124",
      "addr:street": "Via Marco Polo"
    }
  },
  {
    "type": "node",
    "id": 3079034076,
    "lat": 45.4807705,
    "lon": 9.1926856,
    "tags": {
      "addr:city": "Milano",
      "addr:country": "IT",
      "addr:housenumber": "3",
      "addr:postcode": "20124",
      "addr:street": "Via Amerigo Vespucci",
      "amenity": "restaurant",
      "cuisine": "fish",
      "name": "Sweet"
    }
  },
  {
    "type": "node",
    "id": 3079034083,
    "lat": 45.4804891,
    "lon": 9.1941931,
    "tags": {
      "amenity": "waste_basket"
    }
  },
  {
    "type": "node",
    "id": 3079034084,
    "lat": 45.481182,
    "lon": 9.1941311,
    "tags": {
      "amenity": "waste_basket"
    }
  },
  {
    "type": "node",
    "id": 3079034135,
    "lat": 45.480647,
    "lon": 9.1936315,
    "tags": {
      "addr:city": "Milano",
      "addr:country": "IT",
      "addr:housenumber": "6",
      "addr:postcode": "20124",
      "addr:street": "Via Marco Polo"
    }
  },
  {
    "type": "node",
    "id": 3079034136,
    "lat": 45.4807625,
    "lon": 9.193698,
    "tags": {
      "addr:city": "Milano",
      "addr:country": "IT",
      "addr:housenumber": "7",
      "addr:postcode": "20124",
      "addr:street": "Via Marco Polo"
    }
  },
  {
    "type": "node",
    "id": 3079034137,
    "lat": 45.4813015,
    "lon": 9.1928105,
    "tags": {
      "addr:city": "Milano",
      "addr:country": "IT",
      "addr:housenumber": "9",
      "addr:postcode": "20124",
      "addr:street": "Via Amerigo Vespucci"
    }
  },
  {
    "type": "node",
    "id": 3079034142,
    "lat": 45.4810239,
    "lon": 9.1927387,
    "tags": {
      "addr:city": "Milano",
      "addr:country": "IT",
      "addr:housenumber": "5",
      "addr:postcode": "20124",
      "addr:street": "Via Amerigo Vespucci",
      "amenity": "restaurant",
      "name": "Petit Bistrot",
      "opening_hours": "Mo-Su 12:00-15:00,19:00-24:00",
      "phone": "+39 02 89690870",
      "website": "http://www.petitbistrogroup.com/milano/"
    }
  },
  {
    "type": "node",
    "id": 3079034143,
    "lat": 45.4803984,
    "lon": 9.1942113,
    "tags": {
      "amenity": "waste_basket"
    }
  },
  {
    "type": "node",
    "id": 3079034144,
    "lat": 45.4807184,
    "lon": 9.1953001,
    "tags": {
      "amenity": "waste_basket"
    }
  },
  {
    "type": "node",
    "id": 3079034145,
    "lat": 45.4809065,
    "lon": 9.1930177,
    "tags": {
      "amenity": "waste_basket"
    }
  },
  {
    "type": "node",
    "id": 3079034146,
    "lat": 45.4812083,
    "lon": 9.1942028,
    "tags": {
      "amenity": "waste_basket"
    }
  },
  {
    "type": "node",
    "id": 3079034147,
    "lat": 45.4821605,
    "lon": 9.193203,
    "tags": {
      "amenity": "bench",
      "backrest": "no"
    }
  },
  {
    "type": "node",
    "id": 3079034148,
    "lat": 45.4825111,
    "lon": 9.1930933,
    "tags": {
      "amenity": "bench",
      "backrest": "no"
    }
  },
  {
    "type": "node",
    "id": 3079035051,
    "lat": 45.4807066,
    "lon": 9.1934987,
    "tags": {
      "addr:city": "Milano",
      "addr:country": "IT",
      "addr:housenumber": "6",
      "addr:postcode": "20124",
      "addr:street": "Via Marco Polo",
      "amenity": "cafe",
      "name": "Marco Polo Bar"
    }
  },
  {
    "type": "node",
    "id": 3079035052,
    "lat": 45.48143,
    "lon": 9.1928264,
    "tags": {
      "addr:city": "Milano",
      "addr:country": "IT",
      "addr:housenumber": "11",
      "addr:postcode": "20124",
      "addr:street": "Via Amerigo Vespucci"
    }
  },
  {
    "type": "node",
    "id": 3079035053,
    "lat": 45.4816145,
    "lon": 9.1925607,
    "tags": {
      "addr:city": "Milano",
      "addr:country": "IT",
      "addr:housenumber": "13",
      "addr:postcode": "20124",
      "addr:street": "Via Amerigo Vespucci"
    }
  },
  {
    "type": "node",
    "id": 3079035054,
    "lat": 45.4809457,
    "lon": 9.1927281,
    "tags": {
      "addr:city": "Milano",
      "addr:country": "IT",
      "addr:housenumber": "5",
      "addr:postcode": "20124",
      "addr:street": "Via Amerigo Vespucci"
    }
  },
  {
    "type": "node",
    "id": 3079035055,
    "lat": 45.4811841,
    "lon": 9.1927786,
    "tags": {
      "addr:city": "Milano",
      "addr:country": "IT",
      "addr:housenumber": "7",
      "addr:postcode": "20124",
      "addr:street": "Via Amerigo Vespucci"
    }
  },
  {
    "type": "node",
    "id": 3079035056,
    "lat": 45.480511,
    "lon": 9.1939318,
    "tags": {
      "addr:city": "Milano",
      "addr:country": "IT",
      "addr:housenumber": "8",
      "addr:postcode": "20124",
      "addr:street": "Via Marco Polo"
    }
  },
  {
    "type": "node",
    "id": 3079035057,
    "lat": 45.480619,
    "lon": 9.1940141,
    "tags": {
      "addr:city": "Milano",
      "addr:country": "IT",
      "addr:housenumber": "9",
      "addr:postcode": "20124",
      "addr:street": "Via Marco Polo"
    }
  },
  {
    "type": "node",
    "id": 3079035058,
    "lat": 45.4808786,
    "lon": 9.1949494,
    "tags": {
      "amenity": "waste_basket"
    }
  },
  {
    "type": "node",
    "id": 3079035059,
    "lat": 45.4810351,
    "lon": 9.194604,
    "tags": {
      "amenity": "waste_basket"
    }
  },
  {
    "type": "node",
    "id": 3079035060,
    "lat": 45.4820548,
    "lon": 9.1932191,
    "tags": {
      "amenity": "bench",
      "backrest": "no"
    }
  },
  {
    "type": "node",
    "id": 3079041959,
    "lat": 45.4802392,
    "lon": 9.1956353,
    "tags": {
      "addr:city": "Milano",
      "addr:country": "IT",
      "addr:housenumber": "7",
      "addr:postcode": "20124",
      "addr:street": "Via Galileo Galilei"
    }
  },
  {
    "type": "node",
    "id": 3079042313,
    "lat": 45.4799935,
    "lon": 9.1949872,
    "tags": {
      "addr:city": "Milano",
      "addr:country": "IT",
      "addr:postcode": "20124",
      "addr:street": "Via Galileo Galilei",
      "email": "info@wellnessbagnohotel.com",
      "name": "Jacuzzi",
      "opening_hours": "Mo 15:00-19:00; Tu-Fr 10:00-13:00,15:00-19:00",
      "phone": "+39 02 99371057",
      "shop": "bathroom_furnishing",
      "website": "http://www.jacuzzimilanocentro.it/"
    }
  },
  {
    "type": "node",
    "id": 3079042314,
    "lat": 45.4801166,
    "lon": 9.1947591,
    "tags": {
      "name": "Lavanderia Schiuma",
      "shop": "laundry"
    }
  },
  {
    "type": "node",
    "id": 3079042315,
    "lat": 45.4801981,
    "lon": 9.1945934,
    "tags": {
      "addr:city": "Milano",
      "addr:country": "IT",
      "addr:housenumber": "10",
      "addr:postcode": "20124",
      "addr:street": "Via Marco Polo"
    }
  },
  {
    "type": "node",
    "id": 3079042724,
    "lat": 45.4801306,
    "lon": 9.1953188,
    "tags": {
      "addr:city": "Milano",
      "addr:country": "IT",
      "addr:housenumber": "5",
      "addr:postcode": "20124",
      "addr:street": "Via Galileo Galilei"
    }
  },
  {
    "type": "node",
    "id": 3079042725,
    "lat": 45.4800325,
    "lon": 9.1952048,
    "tags": {
      "amenity": "waste_basket"
    }
  },
  {
    "type": "node",
    "id": 3147153616,
    "lat": 45.4857183,
    "lon": 9.192359,
    "tags": {
      "addr:city": "Milano",
      "addr:country": "IT",
      "addr:housenumber": "26",
      "addr:postcode": "20124",
      "addr:street": "Via Gaetano De Castillia"
    }
  },
  {
    "type": "node",
    "id": 3217980426,
    "lat": 45.482829,
    "lon": 9.1941769,
    "tags": {
      "amenity": "bench"
    }
  },
  {
    "type": "node",
    "id": 3217980428,
    "lat": 45.4828532,
    "lon": 9.1941276,
    "tags": {
      "amenity": "bench"
    }
  },
  {
    "type": "node",
    "id": 3217980431,
    "lat": 45.4828887,
    "lon": 9.1940555,
    "tags": {
      "amenity": "bench"
    }
  },
  {
    "type": "node",
    "id": 3217980433,
    "lat": 45.4829035,
    "lon": 9.1936773,
    "tags": {
      "natural": "tree"
    }
  },
  {
    "type": "node",
    "id": 3217982352,
    "lat": 45.482033,
    "lon": 9.1942637,
    "tags": {
      "addr:city": "Milano",
      "addr:country": "IT",
      "addr:housenumber": "13",
      "addr:postcode": "20124",
      "addr:street": "Viale della Liberazione"
    }
  },
  {
    "type": "node",
    "id": 3217982403,
    "lat": 45.4814804,
    "lon": 9.1973694,
    "tags": {
      "amenity": "waste_basket"
    }
  },
  {
    "type": "node",
    "id": 3217982416,
    "lat": 45.4816929,
    "lon": 9.1952683,
    "tags": {
      "amenity": "waste_basket"
    }
  },
  {
    "type": "node",
    "id": 3217982530,
    "lat": 45.4819204,
    "lon": 9.1946387,
    "tags": {
      "entrance": "yes"
    }
  },
  {
    "type": "node",
    "id": 3217982532,
    "lat": 45.4819605,
    "lon": 9.1946894,
    "tags": {
      "amenity": "waste_basket"
    }
  },
  {
    "type": "node",
    "id": 3217982535,
    "lat": 45.4820594,
    "lon": 9.1942631,
    "tags": {
      "entrance": "yes"
    }
  },
  {
    "type": "node",
    "id": 3217982542,
    "lat": 45.4822609,
    "lon": 9.1922061,
    "tags": {
      "barrier": "bollard"
    }
  },
  {
    "type": "node",
    "id": 3217982547,
    "lat": 45.4827356,
    "lon": 9.1942078,
    "tags": {
      "natural": "tree"
    }
  },
  {
    "type": "node",
    "id": 3217983490,
    "lat": 45.4814081,
    "lon": 9.1969542,
    "tags": {
      "name": "Milano Repubblica",
      "railway": "subway_entrance"
    }
  },
  {
    "type": "node",
    "id": 3217983491,
    "lat": 45.4814539,
    "lon": 9.1968271,
    "tags": {
      "name": "Milano Repubblica",
      "railway": "subway_entrance"
    }
  },
  {
    "type": "node",
    "id": 3217983531,
    "lat": 45.4817477,
    "lon": 9.1945464,
    "tags": {
      "addr:city": "Milano",
      "addr:country": "IT",
      "addr:housenumber": "13",
      "addr:postcode": "20124",
      "addr:street": "Viale della Liberazione",
      "amenity": "restaurant",
      "email": "info@ristoranteberton.com",
      "name": "Ristorante Berton",
      "opening_hours": "Mo,Sa 20:00-22:30; Tu-Fr 12:00-14:30,20:00-22:30",
      "phone": "+39 02 67075801",
      "website": "http://www.ristoranteberton.com/it/"
    }
  },
  {
    "type": "node",
    "id": 3217983620,
    "lat": 45.4819467,
    "lon": 9.1946497,
    "tags": {
      "addr:city": "Milano",
      "addr:country": "IT",
      "addr:housenumber": "11",
      "addr:postcode": "20124",
      "addr:street": "Viale della Liberazione"
    }
  },
  {
    "type": "node",
    "id": 3217983661,
    "lat": 45.4823505,
    "lon": 9.1936161,
    "tags": {
      "addr:city": "Milano",
      "addr:country": "IT",
      "addr:housenumber": "15",
      "addr:postcode": "20124",
      "addr:street": "Viale della Liberazione"
    }
  },
  {
    "type": "node",
    "id": 3217983678,
    "lat": 45.4829057,
    "lon": 9.1940209,
    "tags": {
      "amenity": "bench"
    }
  },
  {
    "type": "node",
    "id": 3217983881,
    "lat": 45.481077,
    "lon": 9.1965445,
    "tags": {
      "emergency": "fire_hydrant",
      "fire_hydrant:position": "sidewalk"
    }
  },
  {
    "type": "node",
    "id": 3217983890,
    "lat": 45.4813805,
    "lon": 9.1968339,
    "tags": {
      "amenity": "waste_basket"
    }
  },
  {
    "type": "node",
    "id": 3217983905,
    "lat": 45.4817041,
    "lon": 9.1965955,
    "tags": {
      "amenity": "waste_basket"
    }
  },
  {
    "type": "node",
    "id": 3217983970,
    "lat": 45.4827406,
    "lon": 9.1944072,
    "tags": {
      "natural": "tree"
    }
  },
  {
    "type": "node",
    "id": 3217983971,
    "lat": 45.4827669,
    "lon": 9.1941843,
    "tags": {
      "amenity": "drinking_water"
    }
  },
  {
    "type": "node",
    "id": 3217983972,
    "lat": 45.4828394,
    "lon": 9.1941557,
    "tags": {
      "amenity": "bench"
    }
  },
  {
    "type": "node",
    "id": 3217983973,
    "lat": 45.4828772,
    "lon": 9.1940789,
    "tags": {
      "amenity": "bench"
    }
  },
  {
    "type": "node",
    "id": 3217983974,
    "lat": 45.4828985,
    "lon": 9.1938182,
    "tags": {
      "natural": "tree"
    }
  },
  {
    "type": "node",
    "id": 3217983975,
    "lat": 45.4829051,
    "lon": 9.1945434,
    "tags": {
      "natural": "tree"
    }
  },
  {
    "type": "node",
    "id": 3265381430,
    "lat": 45.4819659,
    "lon": 9.1923064,
    "tags": {
      "amenity": "bicycle_parking",
      "bicycle_parking": "Verona_rack",
      "capacity": "15"
    }
  },
  {
    "type": "node",
    "id": 3307147582,
    "lat": 45.4827322,
    "lon": 9.188668,
    "tags": {
      "highway": "crossing"
    }
  },
  {
    "type": "node",
    "id": 3307148054,
    "lat": 45.4805876,
    "lon": 9.1905349,
    "tags": {
      "amenity": "waste_basket"
    }
  },
  {
    "type": "node",
    "id": 3307148056,
    "lat": 45.4805962,
    "lon": 9.1878033,
    "tags": {
      "entrance": "main"
    }
  },
  {
    "type": "node",
    "id": 3307148058,
    "lat": 45.4806579,
    "lon": 9.1902101,
    "tags": {
      "crossing": "traffic_signals",
      "highway": "crossing"
    }
  },
  {
    "type": "node",
    "id": 3307148292,
    "lat": 45.4801477,
    "lon": 9.190257,
    "tags": {
      "natural": "tree"
    }
  },
  {
    "type": "node",
    "id": 3307148293,
    "lat": 45.4801593,
    "lon": 9.1895744,
    "tags": {
      "amenity": "waste_basket"
    }
  },
  {
    "type": "node",
    "id": 3307148297,
    "lat": 45.4815247,
    "lon": 9.1918431,
    "tags": {
      "highway": "crossing"
    }
  },
  {
    "type": "node",
    "id": 3307148298,
    "lat": 45.4815496,
    "lon": 9.1917993,
    "tags": {
      "highway": "crossing"
    }
  },
  {
    "type": "node",
    "id": 3307148300,
    "lat": 45.4822421,
    "lon": 9.192054,
    "tags": {
      "highway": "crossing"
    }
  },
  {
    "type": "node",
    "id": 3307148442,
    "lat": 45.4809064,
    "lon": 9.1891102,
    "tags": {
      "addr:city": "Milano",
      "addr:country": "IT",
      "addr:housenumber": "16",
      "addr:postcode": "20124",
      "addr:street": "Viale Monte Grappa",
      "name": "Hydrogen",
      "shop": "clothes"
    }
  },
  {
    "type": "node",
    "id": 3307148569,
    "lat": 45.4803882,
    "lon": 9.1882462,
    "tags": {
      "addr:city": "Milano",
      "addr:country": "IT",
      "addr:housenumber": "10",
      "addr:postcode": "20121",
      "addr:street": "Bastioni di Porta Nuova"
    }
  },
  {
    "type": "node",
    "id": 3307148694,
    "lat": 45.4804272,
    "lon": 9.1879167,
    "tags": {
      "addr:city": "Milano",
      "addr:country": "IT",
      "addr:housenumber": "12",
      "addr:postcode": "20121",
      "addr:street": "Bastioni di Porta Nuova"
    }
  },
  {
    "type": "node",
    "id": 3307148703,
    "lat": 45.4803532,
    "lon": 9.1884892,
    "tags": {
      "addr:city": "Milano",
      "addr:country": "IT",
      "addr:housenumber": "8",
      "addr:postcode": "20121",
      "addr:street": "Bastioni di Porta Nuova"
    }
  },
  {
    "type": "node",
    "id": 3307148838,
    "lat": 45.4801725,
    "lon": 9.19009,
    "tags": {
      "natural": "tree"
    }
  },
  {
    "type": "node",
    "id": 3307148840,
    "lat": 45.4802016,
    "lon": 9.1896361,
    "tags": {
      "amenity": "vending_machine",
      "vending": "parking_tickets"
    }
  },
  {
    "type": "node",
    "id": 3307148843,
    "lat": 45.4802581,
    "lon": 9.1901847,
    "tags": {
      "natural": "tree"
    }
  },
  {
    "type": "node",
    "id": 3307148851,
    "lat": 45.4803321,
    "lon": 9.1882543,
    "tags": {
      "amenity": "vending_machine",
      "vending": "parking_tickets"
    }
  },
  {
    "type": "node",
    "id": 3307148853,
    "lat": 45.4803549,
    "lon": 9.1902859,
    "tags": {
      "natural": "tree"
    }
  },
  {
    "type": "node",
    "id": 3307148854,
    "lat": 45.4803545,
    "lon": 9.1906307,
    "tags": {
      "natural": "tree"
    }
  },
  {
    "type": "node",
    "id": 3307148856,
    "lat": 45.4804014,
    "lon": 9.1898497,
    "tags": {
      "natural": "tree"
    }
  },
  {
    "type": "node",
    "id": 3307148857,
    "lat": 45.4804408,
    "lon": 9.1928308,
    "tags": {
      "highway": "crossing"
    }
  },
  {
    "type": "node",
    "id": 3307149041,
    "lat": 45.4803099,
    "lon": 9.1902682,
    "tags": {
      "natural": "tree"
    }
  },
  {
    "type": "node",
    "id": 3307149042,
    "lat": 45.4803312,
    "lon": 9.1902057,
    "tags": {
      "amenity": "waste_basket"
    }
  },
  {
    "type": "node",
    "id": 3307149239,
    "lat": 45.4822553,
    "lon": 9.1896483,
    "tags": {
      "crossing": "zebra",
      "highway": "crossing"
    }
  },
  {
    "type": "node",
    "id": 3307149261,
    "lat": 45.4804762,
    "lon": 9.1898837,
    "tags": {
      "natural": "tree"
    }
  },
  {
    "type": "node",
    "id": 3307149262,
    "lat": 45.480559,
    "lon": 9.1899178,
    "tags": {
      "natural": "tree"
    }
  },
  {
    "type": "node",
    "id": 3307149361,
    "lat": 45.4807305,
    "lon": 9.1907983,
    "tags": {
      "amenity": "waste_basket"
    }
  },
  {
    "type": "node",
    "id": 3307149362,
    "lat": 45.480726,
    "lon": 9.1902627,
    "tags": {
      "crossing": "traffic_signals",
      "highway": "crossing"
    }
  },
  {
    "type": "node",
    "id": 3307149371,
    "lat": 45.4808663,
    "lon": 9.1878095,
    "tags": {
      "highway": "crossing"
    }
  },
  {
    "type": "node",
    "id": 3307875552,
    "lat": 45.4812664,
    "lon": 9.1968134,
    "tags": {
      "crossing": "traffic_signals",
      "highway": "crossing"
    }
  },
  {
    "type": "node",
    "id": 3307875554,
    "lat": 45.4817155,
    "lon": 9.1929675,
    "tags": {
      "highway": "crossing"
    }
  },
  {
    "type": "node",
    "id": 3307875566,
    "lat": 45.4811178,
    "lon": 9.1965638,
    "tags": {
      "highway": "crossing"
    }
  },
  {
    "type": "node",
    "id": 3307886474,
    "lat": 45.482096,
    "lon": 9.1924966,
    "tags": {
      "bicycle": "yes",
      "crossing_ref": "zebra",
      "highway": "crossing"
    }
  },
  {
    "type": "node",
    "id": 3307958654,
    "lat": 45.4857854,
    "lon": 9.1941505,
    "tags": {
      "highway": "crossing"
    }
  },
  {
    "type": "node",
    "id": 3307958656,
    "lat": 45.4859935,
    "lon": 9.1939131,
    "tags": {
      "highway": "crossing"
    }
  },
  {
    "type": "node",
    "id": 3307978024,
    "lat": 45.4852944,
    "lon": 9.1942831,
    "tags": {
      "natural": "tree"
    }
  },
  {
    "type": "node",
    "id": 3307978025,
    "lat": 45.4853284,
    "lon": 9.1942184,
    "tags": {
      "natural": "tree"
    }
  },
  {
    "type": "node",
    "id": 3307978027,
    "lat": 45.4853737,
    "lon": 9.1941194,
    "tags": {
      "natural": "tree"
    }
  },
  {
    "type": "node",
    "id": 3307979783,
    "lat": 45.485419,
    "lon": 9.1941651,
    "tags": {
      "natural": "tree"
    }
  },
  {
    "type": "node",
    "id": 3307980062,
    "lat": 45.4856161,
    "lon": 9.1942569,
    "tags": {
      "natural": "tree"
    }
  },
  {
    "type": "node",
    "id": 3308376661,
    "lat": 45.4800166,
    "lon": 9.1931803,
    "tags": {
      "addr:city": "Milano",
      "addr:country": "IT",
      "addr:housenumber": "8",
      "addr:postcode": "20121",
      "addr:street": "Piazzale Principessa Clotilde",
      "clothes": "wedding",
      "email": "info@lesposedimilano.it",
      "name": "Le Spose di Milano",
      "opening_hours": "Mo-Sa 10:00-19:00",
      "phone": "+39 02 36727248",
      "shop": "clothes",
      "website": "http://www.lesposedimilano.it/it/"
    }
  },
  {
    "type": "node",
    "id": 3308376662,
    "lat": 45.4801775,
    "lon": 9.1933459,
    "tags": {
      "amenity": "clock",
      "display": "analog",
      "support": "wall_mounted"
    }
  },
  {
    "type": "node",
    "id": 3308376663,
    "lat": 45.4802301,
    "lon": 9.1928909,
    "tags": {
      "crossing": "traffic_signals",
      "highway": "crossing"
    }
  },
  {
    "type": "node",
    "id": 3308376664,
    "lat": 45.4802443,
    "lon": 9.1928962,
    "tags": {
      "crossing": "traffic_signals",
      "highway": "crossing"
    }
  },
  {
    "type": "node",
    "id": 3308376665,
    "lat": 45.4802283,
    "lon": 9.1933363,
    "tags": {
      "addr:city": "Milano",
      "addr:country": "IT",
      "addr:housenumber": "10",
      "addr:postcode": "20121",
      "addr:street": "Piazzale Principessa Clotilde",
      "amenity": "restaurant",
      "cuisine": "steak",
      "email": "info@labisbistecca.com",
      "name": "Ristorante La Bistecca",
      "phone": "+39 02 63793846",
      "website": "http://www.labisbistecca.com/"
    }
  },
  {
    "type": "node",
    "id": 3308376666,
    "lat": 45.4802571,
    "lon": 9.192901,
    "tags": {
      "crossing": "traffic_signals",
      "highway": "crossing"
    }
  },
  {
    "type": "node",
    "id": 3409348883,
    "lat": 45.4810268,
    "lon": 9.1928825,
    "tags": {
      "natural": "tree"
    }
  },
  {
    "type": "node",
    "id": 3409367202,
    "lat": 45.4799958,
    "lon": 9.1937768,
    "tags": {
      "highway": "crossing"
    }
  },
  {
    "type": "node",
    "id": 3409367216,
    "lat": 45.4803841,
    "lon": 9.1924722,
    "tags": {
      "crossing": "uncontrolled",
      "highway": "crossing"
    }
  },
  {
    "type": "node",
    "id": 3409367220,
    "lat": 45.4805141,
    "lon": 9.1927728,
    "tags": {
      "natural": "tree"
    }
  },
  {
    "type": "node",
    "id": 3409367309,
    "lat": 45.4801812,
    "lon": 9.1931708,
    "tags": {
      "crossing": "traffic_signals",
      "highway": "crossing"
    }
  },
  {
    "type": "node",
    "id": 3409367323,
    "lat": 45.4805834,
    "lon": 9.1927876,
    "tags": {
      "natural": "tree"
    }
  },
  {
    "type": "node",
    "id": 3409367324,
    "lat": 45.4806488,
    "lon": 9.1928016,
    "tags": {
      "natural": "tree"
    }
  },
  {
    "type": "node",
    "id": 3409367333,
    "lat": 45.4808642,
    "lon": 9.1928477,
    "tags": {
      "natural": "tree"
    }
  },
  {
    "type": "node",
    "id": 3409367336,
    "lat": 45.4809739,
    "lon": 9.1931064,
    "tags": {
      "highway": "crossing"
    }
  },
  {
    "type": "node",
    "id": 3409368143,
    "lat": 45.4807284,
    "lon": 9.1928187,
    "tags": {
      "natural": "tree"
    }
  },
  {
    "type": "node",
    "id": 3409368144,
    "lat": 45.4807925,
    "lon": 9.1928324,
    "tags": {
      "natural": "tree"
    }
  },
  {
    "type": "node",
    "id": 3409368146,
    "lat": 45.4809601,
    "lon": 9.1928682,
    "tags": {
      "natural": "tree"
    }
  },
  {
    "type": "node",
    "id": 3409409849,
    "lat": 45.480008,
    "lon": 9.1921662,
    "tags": {
      "natural": "tree"
    }
  },
  {
    "type": "node",
    "id": 3409410265,
    "lat": 45.4801832,
    "lon": 9.191569,
    "tags": {
      "natural": "tree"
    }
  },
  {
    "type": "node",
    "id": 3409414812,
    "lat": 45.4801041,
    "lon": 9.1921844,
    "tags": {
      "natural": "tree"
    }
  },
  {
    "type": "node",
    "id": 3409414813,
    "lat": 45.4801789,
    "lon": 9.1916817,
    "tags": {
      "natural": "tree"
    }
  },
  {
    "type": "node",
    "id": 3409414814,
    "lat": 45.4801896,
    "lon": 9.1922058,
    "tags": {
      "natural": "tree"
    }
  },
  {
    "type": "node",
    "id": 3409414815,
    "lat": 45.480228,
    "lon": 9.1909109,
    "tags": {
      "natural": "tree"
    }
  },
  {
    "type": "node",
    "id": 3409414827,
    "lat": 45.4806128,
    "lon": 9.1922687,
    "tags": {
      "natural": "tree"
    }
  },
  {
    "type": "node",
    "id": 3409415883,
    "lat": 45.4799055,
    "lon": 9.1921418,
    "tags": {
      "natural": "tree"
    }
  },
  {
    "type": "node",
    "id": 3409415884,
    "lat": 45.4802879,
    "lon": 9.1915995,
    "tags": {
      "natural": "tree"
    }
  },
  {
    "type": "node",
    "id": 3409416170,
    "lat": 45.4802152,
    "lon": 9.1910511,
    "tags": {
      "natural": "tree"
    }
  },
  {
    "type": "node",
    "id": 3409416450,
    "lat": 45.4802665,
    "lon": 9.1917274,
    "tags": {
      "natural": "tree"
    }
  },
  {
    "type": "node",
    "id": 3448547320,
    "lat": 45.4803154,
    "lon": 9.1931122,
    "tags": {
      "addr:city": "Milano",
      "addr:country": "IT",
      "addr:housenumber": "10",
      "addr:postcode": "20121",
      "addr:street": "Piazzale Principessa Clotilde"
    }
  },
  {
    "type": "node",
    "id": 3448547327,
    "lat": 45.480477,
    "lon": 9.1920022,
    "tags": {
      "addr:city": "Milano",
      "addr:country": "IT",
      "addr:housenumber": "4",
      "addr:postcode": "20124",
      "addr:street": "Viale Monte Grappa"
    }
  },
  {
    "type": "node",
    "id": 3448550077,
    "lat": 45.4804498,
    "lon": 9.1921932,
    "tags": {
      "addr:city": "Milano",
      "addr:country": "IT",
      "addr:housenumber": "2",
      "addr:postcode": "20124",
      "addr:street": "Viale Monte Grappa"
    }
  },
  {
    "type": "node",
    "id": 3448550161,
    "lat": 45.4805914,
    "lon": 9.1913714,
    "tags": {
      "addr:city": "Milano",
      "addr:country": "IT",
      "addr:housenumber": "6",
      "addr:postcode": "20124",
      "addr:street": "Viale Monte Grappa",
      "name": "Ferramenta Molteni",
      "shop": "hardware"
    }
  },
  {
    "type": "node",
    "id": 3448550162,
    "lat": 45.4804457,
    "lon": 9.192291,
    "tags": {
      "addr:city": "Milano",
      "addr:country": "IT",
      "addr:housenumber": "2",
      "addr:postcode": "20124",
      "addr:street": "Viale Monte Grappa",
      "amenity": "restaurant",
      "cuisine": "italian",
      "email": "info@ilrifugiodelghiottone.it",
      "name": "Il Rifugio del Ghiottone",
      "phone": "+39 02 6592445",
      "website": "http://www.ilrifugiodelghiottone.it/"
    }
  },
  {
    "type": "node",
    "id": 3448550164,
    "lat": 45.4805545,
    "lon": 9.1926419,
    "tags": {
      "addr:city": "Milano",
      "addr:country": "IT",
      "addr:housenumber": "1",
      "addr:postcode": "20124",
      "addr:street": "Via Amerigo Vespucci"
    }
  },
  {
    "type": "node",
    "id": 3448550215,
    "lat": 45.4805584,
    "lon": 9.1914793,
    "tags": {
      "addr:city": "Milano",
      "addr:country": "IT",
      "addr:housenumber": "6",
      "addr:postcode": "20124",
      "addr:street": "Viale Monte Grappa",
      "amenity": "restaurant",
      "email": "info@il-liberty.it",
      "name": "Il Liberty",
      "phone": "+39 02 29011439",
      "website": "http://www.il-liberty.it/"
    }
  },
  {
    "type": "node",
    "id": 3448550414,
    "lat": 45.4805352,
    "lon": 9.1916038,
    "tags": {
      "addr:city": "Milano",
      "addr:country": "IT",
      "addr:housenumber": "6",
      "addr:postcode": "20124",
      "addr:street": "Viale Monte Grappa"
    }
  },
  {
    "type": "node",
    "id": 3448551058,
    "lat": 45.4795737,
    "lon": 9.1935274,
    "tags": {
      "natural": "tree"
    }
  },
  {
    "type": "node",
    "id": 3448551061,
    "lat": 45.4795806,
    "lon": 9.1934472,
    "tags": {
      "natural": "tree"
    }
  },
  {
    "type": "node",
    "id": 3448551062,
    "lat": 45.4795819,
    "lon": 9.1933063,
    "tags": {
      "natural": "tree"
    }
  },
  {
    "type": "node",
    "id": 3448551504,
    "lat": 45.479538,
    "lon": 9.1931263,
    "tags": {
      "natural": "tree"
    }
  },
  {
    "type": "node",
    "id": 3448553645,
    "lat": 45.4799546,
    "lon": 9.1917974,
    "tags": {
      "natural": "tree"
    }
  },
  {
    "type": "node",
    "id": 3448553646,
    "lat": 45.4799558,
    "lon": 9.1921767,
    "tags": {
      "amenity": "bench",
      "backrest": "yes"
    }
  },
  {
    "type": "node",
    "id": 3448553650,
    "lat": 45.4802468,
    "lon": 9.1919128,
    "tags": {
      "natural": "tree"
    }
  },
  {
    "type": "node",
    "id": 3448554442,
    "lat": 45.4796958,
    "lon": 9.1932848,
    "tags": {
      "natural": "tree"
    }
  },
  {
    "type": "node",
    "id": 3448554444,
    "lat": 45.4797068,
    "lon": 9.1931263,
    "tags": {
      "natural": "tree"
    }
  },
  {
    "type": "node",
    "id": 3448554451,
    "lat": 45.4797383,
    "lon": 9.1927893,
    "tags": {
      "amenity": "waste_basket"
    }
  },
  {
    "type": "node",
    "id": 3448554455,
    "lat": 45.4797649,
    "lon": 9.1919619,
    "tags": {
      "crossing": "traffic_signals",
      "highway": "crossing"
    }
  },
  {
    "type": "node",
    "id": 3448554457,
    "lat": 45.4797828,
    "lon": 9.1928182,
    "tags": {
      "amenity": "telephone"
    }
  },
  {
    "type": "node",
    "id": 3448554458,
    "lat": 45.4797952,
    "lon": 9.1930198,
    "tags": {
      "natural": "tree"
    }
  },
  {
    "type": "node",
    "id": 3448554461,
    "lat": 45.4798234,
    "lon": 9.1930369,
    "tags": {
      "amenity": "bench",
      "backrest": "yes"
    }
  },
  {
    "type": "node",
    "id": 3448554462,
    "lat": 45.479864,
    "lon": 9.193041,
    "tags": {
      "amenity": "bench",
      "backrest": "yes"
    }
  },
  {
    "type": "node",
    "id": 3448554464,
    "lat": 45.4799006,
    "lon": 9.1930515,
    "tags": {
      "amenity": "waste_basket"
    }
  },
  {
    "type": "node",
    "id": 3448554468,
    "lat": 45.4799645,
    "lon": 9.1930658,
    "tags": {
      "amenity": "bench",
      "backrest": "yes"
    }
  },
  {
    "type": "node",
    "id": 3448554473,
    "lat": 45.4799905,
    "lon": 9.1930598,
    "tags": {
      "natural": "tree"
    }
  },
  {
    "type": "node",
    "id": 3448554474,
    "lat": 45.4800003,
    "lon": 9.1921932,
    "tags": {
      "amenity": "bench",
      "backrest": "yes"
    }
  },
  {
    "type": "node",
    "id": 3448554475,
    "lat": 45.4800101,
    "lon": 9.1915903,
    "tags": {
      "entrance": "main"
    }
  },
  {
    "type": "node",
    "id": 3448554476,
    "lat": 45.4800128,
    "lon": 9.1930782,
    "tags": {
      "amenity": "bench",
      "backrest": "yes"
    }
  },
  {
    "type": "node",
    "id": 3448554477,
    "lat": 45.4800205,
    "lon": 9.1913376,
    "tags": {
      "natural": "tree"
    }
  },
  {
    "type": "node",
    "id": 3448554480,
    "lat": 45.4800456,
    "lon": 9.1930694,
    "tags": {
      "natural": "tree"
    }
  },
  {
    "type": "node",
    "id": 3448554484,
    "lat": 45.4800608,
    "lon": 9.1916062,
    "tags": {
      "entrance": "yes"
    }
  },
  {
    "type": "node",
    "id": 3448554485,
    "lat": 45.4800791,
    "lon": 9.1922122,
    "tags": {
      "amenity": "waste_basket"
    }
  },
  {
    "type": "node",
    "id": 3448554491,
    "lat": 45.4801103,
    "lon": 9.1931033,
    "tags": {
      "amenity": "waste_basket"
    }
  },
  {
    "type": "node",
    "id": 3448554492,
    "lat": 45.4801172,
    "lon": 9.1922277,
    "tags": {
      "amenity": "bench",
      "backrest": "yes"
    }
  },
  {
    "type": "node",
    "id": 3448554995,
    "lat": 45.4796478,
    "lon": 9.1936429,
    "tags": {
      "natural": "tree"
    }
  },
  {
    "type": "node",
    "id": 3448555004,
    "lat": 45.480323,
    "lon": 9.1924555,
    "tags": {
      "crossing": "uncontrolled",
      "highway": "crossing"
    }
  },
  {
    "type": "node",
    "id": 3448555005,
    "lat": 45.4803987,
    "lon": 9.19288,
    "tags": {
      "amenity": "waste_basket"
    }
  },
  {
    "type": "node",
    "id": 3448556499,
    "lat": 45.4801675,
    "lon": 9.1922456,
    "tags": {
      "amenity": "bench",
      "backrest": "yes"
    }
  },
  {
    "type": "node",
    "id": 3448556502,
    "lat": 45.4802361,
    "lon": 9.1926549,
    "tags": {
      "amenity": "waste_basket"
    }
  },
  {
    "type": "node",
    "id": 3448556504,
    "lat": 45.4802825,
    "lon": 9.1920713,
    "tags": {
      "amenity": "vending_machine",
      "vending": "parking_tickets"
    }
  },
  {
    "type": "node",
    "id": 3448556505,
    "lat": 45.4802935,
    "lon": 9.1914843,
    "tags": {
      "natural": "tree"
    }
  },
  {
    "type": "node",
    "id": 3448556506,
    "lat": 45.4802965,
    "lon": 9.1924482,
    "tags": {
      "crossing": "uncontrolled",
      "highway": "crossing"
    }
  },
  {
    "type": "node",
    "id": 3448556507,
    "lat": 45.4803091,
    "lon": 9.1924516,
    "tags": {
      "crossing": "uncontrolled",
      "highway": "crossing"
    }
  },
  {
    "type": "node",
    "id": 3448556508,
    "lat": 45.4803231,
    "lon": 9.1916747,
    "tags": {
      "barrier": "entrance"
    }
  },
  {
    "type": "node",
    "id": 3448556509,
    "lat": 45.4803278,
    "lon": 9.1917269,
    "tags": {
      "amenity": "waste_basket"
    }
  },
  {
    "type": "node",
    "id": 3450917821,
    "lat": 45.4853106,
    "lon": 9.1930944,
    "tags": {
      "information": "office",
      "name": "Porta Nuova Infopoint",
      "tourism": "information"
    }
  },
  {
    "type": "node",
    "id": 3450917846,
    "lat": 45.4851259,
    "lon": 9.1933708,
    "tags": {
      "access": "yes",
      "barrier": "gate"
    }
  },
  {
    "type": "node",
    "id": 3461532738,
    "lat": 45.4844574,
    "lon": 9.1925893,
    "tags": {
      "amenity": "bench"
    }
  },
  {
    "type": "node",
    "id": 3461532739,
    "lat": 45.4845173,
    "lon": 9.1926677,
    "tags": {
      "amenity": "bench"
    }
  },
  {
    "type": "node",
    "id": 3461532740,
    "lat": 45.4845373,
    "lon": 9.1927942,
    "tags": {
      "amenity": "bench"
    }
  },
  {
    "type": "node",
    "id": 3461532741,
    "lat": 45.4843362,
    "lon": 9.1926481,
    "tags": {
      "amenity": "bench"
    }
  },
  {
    "type": "node",
    "id": 3461532742,
    "lat": 45.4843387,
    "lon": 9.192812,
    "tags": {
      "amenity": "bench"
    }
  },
  {
    "type": "node",
    "id": 3461532743,
    "lat": 45.4844336,
    "lon": 9.1929065,
    "tags": {
      "amenity": "bench"
    }
  },
  {
    "type": "node",
    "id": 3476597030,
    "lat": 45.4812982,
    "lon": 9.1967553,
    "tags": {
      "bicycle": "yes",
      "crossing": "traffic_signals",
      "crossing_ref": "zebra",
      "highway": "crossing"
    }
  },
  {
    "type": "node",
    "id": 3476597037,
    "lat": 45.4812143,
    "lon": 9.1966102,
    "tags": {
      "bicycle": "yes",
      "crossing": "traffic_signals",
      "crossing_ref": "zebra",
      "highway": "crossing"
    }
  },
  {
    "type": "node",
    "id": 3476597038,
    "lat": 45.4830926,
    "lon": 9.1935375,
    "tags": {
      "highway": "give_way"
    }
  },
  {
    "type": "node",
    "id": 3479398728,
    "lat": 45.4844573,
    "lon": 9.1952016,
    "tags": {
      "crossing": "traffic_signals",
      "highway": "crossing"
    }
  },
  {
    "type": "node",
    "id": 3479398729,
    "lat": 45.4845227,
    "lon": 9.1952699,
    "tags": {
      "crossing": "traffic_signals",
      "highway": "crossing"
    }
  },
  {
    "type": "node",
    "id": 3479398730,
    "lat": 45.4845262,
    "lon": 9.1951656,
    "tags": {
      "crossing": "traffic_signals",
      "highway": "crossing"
    }
  },
  {
    "type": "node",
    "id": 3479398731,
    "lat": 45.4845967,
    "lon": 9.1950516,
    "tags": {
      "crossing": "traffic_signals",
      "highway": "crossing"
    }
  },
  {
    "type": "node",
    "id": 3479398732,
    "lat": 45.4846066,
    "lon": 9.1953724,
    "tags": {
      "crossing": "traffic_signals",
      "highway": "crossing"
    }
  },
  {
    "type": "node",
    "id": 3521818996,
    "lat": 45.4816878,
    "lon": 9.1932498,
    "tags": {
      "addr:city": "Milano",
      "addr:country": "IT",
      "addr:housenumber": "16",
      "addr:postcode": "20124",
      "addr:street": "Via Joe Colombo"
    }
  },
  {
    "type": "node",
    "id": 3521819303,
    "lat": 45.4828236,
    "lon": 9.1947041,
    "tags": {
      "addr:city": "Milano",
      "addr:country": "IT",
      "addr:housenumber": "4",
      "addr:postcode": "20124",
      "addr:street": "Piazza Luigi Einaudi"
    }
  },
  {
    "type": "node",
    "id": 3521819997,
    "lat": 45.4824374,
    "lon": 9.188689,
    "tags": {
      "addr:city": "Milano",
      "addr:country": "IT",
      "addr:housenumber": "6",
      "addr:postcode": "20124",
      "addr:street": "Via Gaspare Rosales"
    }
  },
  {
    "type": "node",
    "id": 3521820094,
    "lat": 45.4797514,
    "lon": 9.1944548,
    "tags": {
      "addr:city": "Milano",
      "addr:country": "IT",
      "addr:housenumber": "8",
      "addr:postcode": "20124",
      "addr:street": "Viale Monte Santo",
      "amenity": "bank",
      "name": "Banca Popolare di Sondrio"
    }
  },
  {
    "type": "node",
    "id": 3521852490,
    "lat": 45.4797171,
    "lon": 9.1946928,
    "tags": {
      "natural": "tree"
    }
  },
  {
    "type": "node",
    "id": 3521852509,
    "lat": 45.4798714,
    "lon": 9.1950151,
    "tags": {
      "natural": "tree"
    }
  },
  {
    "type": "node",
    "id": 3521852518,
    "lat": 45.4799948,
    "lon": 9.195331,
    "tags": {
      "natural": "tree"
    }
  },
  {
    "type": "node",
    "id": 3521852523,
    "lat": 45.4800742,
    "lon": 9.1955023,
    "tags": {
      "natural": "tree"
    }
  },
  {
    "type": "node",
    "id": 3521852531,
    "lat": 45.4801458,
    "lon": 9.1956548,
    "tags": {
      "natural": "tree"
    }
  },
  {
    "type": "node",
    "id": 3521852553,
    "lat": 45.4803078,
    "lon": 9.1960101,
    "tags": {
      "natural": "tree"
    }
  },
  {
    "type": "node",
    "id": 3521852565,
    "lat": 45.4803805,
    "lon": 9.1961641,
    "tags": {
      "natural": "tree"
    }
  },
  {
    "type": "node",
    "id": 3521852567,
    "lat": 45.4803998,
    "lon": 9.1958992,
    "tags": {
      "highway": "crossing"
    }
  },
  {
    "type": "node",
    "id": 3521852569,
    "lat": 45.4804037,
    "lon": 9.1963716,
    "tags": {
      "natural": "tree"
    }
  },
  {
    "type": "node",
    "id": 3521852578,
    "lat": 45.4804379,
    "lon": 9.1964533,
    "tags": {
      "natural": "tree"
    }
  },
  {
    "type": "node",
    "id": 3521852597,
    "lat": 45.4805268,
    "lon": 9.1962962,
    "tags": {
      "natural": "tree"
    }
  },
  {
    "type": "node",
    "id": 3539682594,
    "lat": 45.4846802,
    "lon": 9.1950191,
    "tags": {
      "crossing": "traffic_signals",
      "highway": "crossing"
    }
  },
  {
    "type": "node",
    "id": 3539682596,
    "lat": 45.4847561,
    "lon": 9.1951168,
    "tags": {
      "crossing": "traffic_signals",
      "highway": "crossing"
    }
  },
  {
    "type": "node",
    "id": 3675021940,
    "lat": 45.4818339,
    "lon": 9.1886288,
    "tags": {
      "natural": "tree"
    }
  },
  {
    "type": "node",
    "id": 3739352742,
    "lat": 45.4823439,
    "lon": 9.1929124,
    "tags": {
      "addr:city": "Milano",
      "addr:country": "IT",
      "addr:postcode": "20124",
      "addr:street": "Piazza Alvar Aalto",
      "clothes": "men",
      "name": "Womo",
      "opening_hours": "Mo-Su 10:00-20:00",
      "shop": "clothes"
    }
  },
  {
    "type": "node",
    "id": 3739353744,
    "lat": 45.4822704,
    "lon": 9.192975,
    "tags": {
      "addr:city": "Milano",
      "addr:country": "IT",
      "addr:postcode": "20124",
      "addr:street": "Piazza Alvar Aalto",
      "name": "Bullfrog",
      "opening_hours": "Mo-Su 11:00-20:00",
      "shop": "hairdresser"
    }
  },
  {
    "type": "node",
    "id": 3799518931,
    "lat": 45.4811372,
    "lon": 9.1964553,
    "tags": {
      "note": "circa qui, cartello \"Via Mike Bongiorno\""
    }
  },
  {
    "type": "node",
    "id": 3799518932,
    "lat": 45.4823183,
    "lon": 9.1941564,
    "tags": {
      "note": "circa qui, cartello \"Via Mike Bongiorno\""
    }
  },
  {
    "type": "node",
    "id": 3799518933,
    "lat": 45.4813694,
    "lon": 9.1959418,
    "tags": {
      "note": "circa qui, cartello \"Via Mike Bongiorno\""
    }
  },
  {
    "type": "node",
    "id": 3799689722,
    "lat": 45.4856934,
    "lon": 9.1921041,
    "tags": {
      "addr:city": "Milano",
      "addr:country": "IT",
      "addr:housenumber": "24",
      "addr:postcode": "20124",
      "addr:street": "Via Gaetano De Castillia"
    }
  },
  {
    "type": "node",
    "id": 3799689796,
    "lat": 45.4806739,
    "lon": 9.1956071,
    "tags": {
      "natural": "tree"
    }
  },
  {
    "type": "node",
    "id": 3799689800,
    "lat": 45.4808409,
    "lon": 9.1959159,
    "tags": {
      "highway": "street_lamp"
    }
  },
  {
    "type": "node",
    "id": 3799689801,
    "lat": 45.4808483,
    "lon": 9.196204,
    "tags": {
      "emergency": "fire_hydrant",
      "fire_hydrant:position": "sidewalk"
    }
  },
  {
    "type": "node",
    "id": 3799689802,
    "lat": 45.480859,
    "lon": 9.1965692,
    "tags": {
      "highway": "street_lamp"
    }
  },
  {
    "type": "node",
    "id": 3799689804,
    "lat": 45.4808897,
    "lon": 9.1961351,
    "tags": {
      "amenity": "bench",
      "backrest": "no",
      "material": "wood"
    }
  },
  {
    "type": "node",
    "id": 3799689806,
    "lat": 45.4808989,
    "lon": 9.1967261,
    "tags": {
      "highway": "street_lamp"
    }
  },
  {
    "type": "node",
    "id": 3799689808,
    "lat": 45.4809278,
    "lon": 9.1960477,
    "tags": {
      "amenity": "bench",
      "backrest": "no",
      "material": "wood"
    }
  },
  {
    "type": "node",
    "id": 3799689809,
    "lat": 45.4809299,
    "lon": 9.1964027,
    "tags": {
      "highway": "street_lamp"
    }
  },
  {
    "type": "node",
    "id": 3799690235,
    "lat": 45.4856118,
    "lon": 9.1915511,
    "tags": {
      "addr:city": "Milano",
      "addr:country": "IT",
      "addr:housenumber": "22",
      "addr:postcode": "20124",
      "addr:street": "Via Gaetano De Castillia",
      "name": "Ziio",
      "shop": "jewelry"
    }
  },
  {
    "type": "node",
    "id": 3799690276,
    "lat": 45.4806682,
    "lon": 9.1954787,
    "tags": {
      "addr:city": "Milano",
      "addr:country": "IT",
      "addr:housenumber": "2",
      "addr:postcode": "20124",
      "addr:street": "Via Joe Colombo",
      "amenity": "parking",
      "parking": "underground"
    }
  },
  {
    "type": "node",
    "id": 3799690489,
    "lat": 45.4852607,
    "lon": 9.1917319,
    "tags": {
      "addr:city": "Milano",
      "addr:country": "IT",
      "addr:housenumber": "4",
      "addr:postcode": "20124",
      "addr:street": "Vicolo Gaetano De Castillia"
    }
  },
  {
    "type": "node",
    "id": 3799691191,
    "lat": 45.4813744,
    "lon": 9.1944948,
    "tags": {
      "natural": "tree"
    }
  },
  {
    "type": "node",
    "id": 3799691196,
    "lat": 45.4815166,
    "lon": 9.1942482,
    "tags": {
      "amenity": "bench",
      "backrest": "no",
      "material": "wood"
    }
  },
  {
    "type": "node",
    "id": 3799691197,
    "lat": 45.4815659,
    "lon": 9.1940655,
    "tags": {
      "natural": "tree"
    }
  },
  {
    "type": "node",
    "id": 3799691236,
    "lat": 45.4820328,
    "lon": 9.1934199,
    "tags": {
      "amenity": "bench",
      "backrest": "no"
    }
  },
  {
    "type": "node",
    "id": 3799691239,
    "lat": 45.4820766,
    "lon": 9.1934524,
    "tags": {
      "amenity": "bench",
      "backrest": "no"
    }
  },
  {
    "type": "node",
    "id": 3799691240,
    "lat": 45.482093,
    "lon": 9.1931727,
    "tags": {
      "amenity": "bench",
      "backrest": "no"
    }
  },
  {
    "type": "node",
    "id": 3799691683,
    "lat": 45.4806968,
    "lon": 9.1959497,
    "tags": {
      "highway": "street_lamp"
    }
  },
  {
    "type": "node",
    "id": 3799691684,
    "lat": 45.4807024,
    "lon": 9.1965095,
    "tags": {
      "amenity": "waste_basket"
    }
  },
  {
    "type": "node",
    "id": 3799691690,
    "lat": 45.4807352,
    "lon": 9.1964708,
    "tags": {
      "highway": "street_lamp"
    }
  },
  {
    "type": "node",
    "id": 3799691692,
    "lat": 45.4807448,
    "lon": 9.1966727,
    "tags": {
      "highway": "street_lamp"
    }
  },
  {
    "type": "node",
    "id": 3799691712,
    "lat": 45.4812786,
    "lon": 9.1947108,
    "tags": {
      "natural": "tree"
    }
  },
  {
    "type": "node",
    "id": 3799691713,
    "lat": 45.4812911,
    "lon": 9.1953063,
    "tags": {
      "amenity": "bench",
      "backrest": "no",
      "material": "wood"
    }
  },
  {
    "type": "node",
    "id": 3799691714,
    "lat": 45.4813061,
    "lon": 9.1952574,
    "tags": {
      "emergency": "fire_hydrant",
      "fire_hydrant:position": "sidewalk"
    }
  },
  {
    "type": "node",
    "id": 3799691715,
    "lat": 45.4813279,
    "lon": 9.1952244,
    "tags": {
      "amenity": "bench",
      "backrest": "no",
      "material": "wood"
    }
  },
  {
    "type": "node",
    "id": 3799691717,
    "lat": 45.481354,
    "lon": 9.1946061,
    "tags": {
      "amenity": "bench",
      "backrest": "no",
      "material": "wood"
    }
  },
  {
    "type": "node",
    "id": 3799691733,
    "lat": 45.4816232,
    "lon": 9.1941528,
    "tags": {
      "amenity": "waste_basket"
    }
  },
  {
    "type": "node",
    "id": 3799691932,
    "lat": 45.4807395,
    "lon": 9.1956669,
    "tags": {
      "natural": "tree"
    }
  },
  {
    "type": "node",
    "id": 3799692023,
    "lat": 45.4805928,
    "lon": 9.19602,
    "tags": {
      "highway": "street_lamp"
    }
  },
  {
    "type": "node",
    "id": 3799692305,
    "lat": 45.4807479,
    "lon": 9.1960863,
    "tags": {
      "highway": "street_lamp"
    }
  },
  {
    "type": "node",
    "id": 3799692306,
    "lat": 45.4807514,
    "lon": 9.1955524,
    "tags": {
      "natural": "tree"
    }
  },
  {
    "type": "node",
    "id": 3799692308,
    "lat": 45.4808145,
    "lon": 9.1962969,
    "tags": {
      "highway": "street_lamp"
    }
  },
  {
    "type": "node",
    "id": 3799692336,
    "lat": 45.480963,
    "lon": 9.195395,
    "tags": {
      "natural": "tree"
    }
  },
  {
    "type": "node",
    "id": 3799692337,
    "lat": 45.4809703,
    "lon": 9.1953417,
    "tags": {
      "natural": "tree"
    }
  },
  {
    "type": "node",
    "id": 3799692341,
    "lat": 45.4810332,
    "lon": 9.1954653,
    "tags": {
      "natural": "tree"
    }
  },
  {
    "type": "node",
    "id": 3799692347,
    "lat": 45.4810586,
    "lon": 9.1958208,
    "tags": {
      "amenity": "bench",
      "backrest": "no",
      "material": "wood"
    }
  },
  {
    "type": "node",
    "id": 3799692348,
    "lat": 45.4810597,
    "lon": 9.1951947,
    "tags": {
      "natural": "tree"
    }
  },
  {
    "type": "node",
    "id": 3799692352,
    "lat": 45.4811238,
    "lon": 9.1956921,
    "tags": {
      "emergency": "fire_hydrant",
      "fire_hydrant:position": "sidewalk"
    }
  },
  {
    "type": "node",
    "id": 3799692356,
    "lat": 45.4812394,
    "lon": 9.194794,
    "tags": {
      "natural": "tree"
    }
  },
  {
    "type": "node",
    "id": 3799692525,
    "lat": 45.4809256,
    "lon": 9.1954393,
    "tags": {
      "natural": "tree"
    }
  },
  {
    "type": "node",
    "id": 3799692526,
    "lat": 45.4811071,
    "lon": 9.1950503,
    "tags": {
      "natural": "tree"
    }
  },
  {
    "type": "node",
    "id": 3799692528,
    "lat": 45.4811105,
    "lon": 9.1951257,
    "tags": {
      "amenity": "bench",
      "backrest": "no",
      "material": "wood"
    }
  },
  {
    "type": "node",
    "id": 3799692531,
    "lat": 45.4817007,
    "lon": 9.1944352,
    "tags": {
      "amenity": "bench",
      "backrest": "no",
      "material": "wood"
    }
  },
  {
    "type": "node",
    "id": 3799692711,
    "lat": 45.4810743,
    "lon": 9.1951296,
    "tags": {
      "natural": "tree"
    }
  },
  {
    "type": "node",
    "id": 3799692712,
    "lat": 45.4811072,
    "lon": 9.195726,
    "tags": {
      "amenity": "bench",
      "backrest": "no",
      "material": "wood"
    }
  },
  {
    "type": "node",
    "id": 3799692713,
    "lat": 45.4810892,
    "lon": 9.1966552,
    "tags": {
      "highway": "street_lamp"
    }
  },
  {
    "type": "node",
    "id": 3799692728,
    "lat": 45.481126,
    "lon": 9.1950906,
    "tags": {
      "amenity": "bench",
      "backrest": "no",
      "material": "wood"
    }
  },
  {
    "type": "node",
    "id": 3799692732,
    "lat": 45.4812093,
    "lon": 9.1948552,
    "tags": {
      "natural": "tree"
    }
  },
  {
    "type": "node",
    "id": 3799692757,
    "lat": 45.4812812,
    "lon": 9.195346,
    "tags": {
      "amenity": "waste_basket"
    }
  },
  {
    "type": "node",
    "id": 3799692760,
    "lat": 45.4813695,
    "lon": 9.194571,
    "tags": {
      "amenity": "bench",
      "backrest": "no",
      "material": "wood"
    }
  },
  {
    "type": "node",
    "id": 3799692874,
    "lat": 45.481461,
    "lon": 9.1943114,
    "tags": {
      "natural": "tree"
    }
  },
  {
    "type": "node",
    "id": 3799692878,
    "lat": 45.4815302,
    "lon": 9.1942151,
    "tags": {
      "amenity": "bench",
      "backrest": "no",
      "material": "wood"
    }
  },
  {
    "type": "node",
    "id": 3799692879,
    "lat": 45.4815467,
    "lon": 9.1941175,
    "tags": {
      "natural": "tree"
    }
  },
  {
    "type": "node",
    "id": 3799692880,
    "lat": 45.4815822,
    "lon": 9.1947069,
    "tags": {
      "emergency": "fire_hydrant",
      "fire_hydrant:position": "sidewalk"
    }
  },
  {
    "type": "node",
    "id": 3799692881,
    "lat": 45.4815942,
    "lon": 9.1940187,
    "tags": {
      "natural": "tree"
    }
  },
  {
    "type": "node",
    "id": 3799692882,
    "lat": 45.4816079,
    "lon": 9.1942151,
    "tags": {
      "natural": "tree"
    }
  },
  {
    "type": "node",
    "id": 3799692883,
    "lat": 45.4816536,
    "lon": 9.1945391,
    "tags": {
      "amenity": "bench",
      "backrest": "no",
      "material": "wood"
    }
  },
  {
    "type": "node",
    "id": 3799692884,
    "lat": 45.4816561,
    "lon": 9.193256,
    "tags": {
      "amenity": "waste_basket"
    }
  },
  {
    "type": "node",
    "id": 3799692991,
    "lat": 45.481708,
    "lon": 9.1942894,
    "tags": {
      "amenity": "waste_basket"
    }
  },
  {
    "type": "node",
    "id": 3799692992,
    "lat": 45.4817363,
    "lon": 9.1943797,
    "tags": {
      "amenity": "waste_basket"
    }
  },
  {
    "type": "node",
    "id": 3799693766,
    "lat": 45.4855266,
    "lon": 9.1907538,
    "tags": {
      "amenity": "waste_basket"
    }
  },
  {
    "type": "node",
    "id": 3799693768,
    "lat": 45.4856232,
    "lon": 9.1916602,
    "tags": {
      "amenity": "waste_basket"
    }
  },
  {
    "type": "node",
    "id": 3989817016,
    "lat": 45.4856989,
    "lon": 9.1920191,
    "tags": {
      "addr:city": "Milano",
      "addr:housenumber": "24",
      "addr:postcode": "20124",
      "addr:street": "Via Gaetano De Castillia",
      "amenity": "restaurant",
      "cuisine": "pizza",
      "name": "Pizzeria Naturale",
      "phone": "+39 02 87 066 934",
      "smoking": "no",
      "website": "http://www.pizzeria-naturale.it/"
    }
  },
  {
    "type": "node",
    "id": 4028219023,
    "lat": 45.4823995,
    "lon": 9.1933805,
    "tags": {
      "addr:city": "Milano",
      "addr:country": "IT",
      "addr:postcode": "20124",
      "addr:street": "Piazza Alvar Aalto",
      "amenity": "restaurant",
      "cuisine": "mexican",
      "name": "Bésame Mucho"
    }
  },
  {
    "type": "node",
    "id": 4028219146,
    "lat": 45.4820111,
    "lon": 9.1928663,
    "tags": {
      "addr:city": "Milano",
      "addr:country": "IT",
      "addr:postcode": "20124",
      "addr:street": "Piazza Alvar Aalto",
      "amenity": "restaurant",
      "cuisine": "thai",
      "name": "Thai Gallery",
      "phone": "+39 02 89280745",
      "website": "http://www.thaigallery.it/"
    }
  },
  {
    "type": "node",
    "id": 4225466422,
    "lat": 45.4801647,
    "lon": 9.193457,
    "tags": {
      "addr:city": "Milano",
      "addr:housenumber": "12",
      "addr:street": "Viale Monte Santo",
      "amenity": "pharmacy",
      "contact:phone": "+39 02 6555861",
      "dispensing": "yes",
      "fixme": "position estimated",
      "name": "Farmacia Monte Santo",
      "ref:vatin": "IT01566990030"
    }
  },
  {
    "type": "node",
    "id": 4230457971,
    "lat": 45.481143,
    "lon": 9.1912737,
    "tags": {
      "highway": "crossing"
    }
  },
  {
    "type": "node",
    "id": 4233660589,
    "lat": 45.4802722,
    "lon": 9.1958838,
    "tags": {
      "highway": "give_way"
    }
  },
  {
    "type": "node",
    "id": 4233660602,
    "lat": 45.4815419,
    "lon": 9.1954754,
    "tags": {
      "entrance": "yes"
    }
  },
  {
    "type": "node",
    "id": 4233660604,
    "lat": 45.4816521,
    "lon": 9.1926455,
    "tags": {
      "barrier": "bollard"
    }
  },
  {
    "type": "node",
    "id": 4233660607,
    "lat": 45.4816809,
    "lon": 9.1950998,
    "tags": {
      "entrance": "yes"
    }
  },
  {
    "type": "node",
    "id": 4233660608,
    "lat": 45.4816881,
    "lon": 9.1925694,
    "tags": {
      "barrier": "bollard"
    }
  },
  {
    "type": "node",
    "id": 4233660624,
    "lat": 45.4818848,
    "lon": 9.192398,
    "tags": {
      "highway": "give_way"
    }
  },
  {
    "type": "node",
    "id": 4233660630,
    "lat": 45.4819349,
    "lon": 9.1924447,
    "tags": {
      "natural": "tree"
    }
  },
  {
    "type": "node",
    "id": 4233660631,
    "lat": 45.481949,
    "lon": 9.1922987,
    "tags": {
      "highway": "crossing"
    }
  },
  {
    "type": "node",
    "id": 4233660634,
    "lat": 45.4820348,
    "lon": 9.1922183,
    "tags": {
      "highway": "crossing"
    }
  },
  {
    "type": "node",
    "id": 4233660635,
    "lat": 45.4820948,
    "lon": 9.1921146,
    "tags": {
      "highway": "crossing"
    }
  },
  {
    "type": "node",
    "id": 4233660637,
    "lat": 45.48269,
    "lon": 9.1934695,
    "tags": {
      "highway": "give_way"
    }
  },
  {
    "type": "node",
    "id": 4233660638,
    "lat": 45.4827873,
    "lon": 9.1928659,
    "tags": {
      "highway": "give_way"
    }
  },
  {
    "type": "node",
    "id": 4233687026,
    "lat": 45.4807559,
    "lon": 9.1952865,
    "tags": {
      "entrance": "yes"
    }
  },
  {
    "type": "node",
    "id": 4233687039,
    "lat": 45.4819845,
    "lon": 9.194821,
    "tags": {
      "highway": "give_way"
    }
  },
  {
    "type": "node",
    "id": 4233687049,
    "lat": 45.4822711,
    "lon": 9.1936528,
    "tags": {
      "entrance": "main"
    }
  },
  {
    "type": "node",
    "id": 4233687064,
    "lat": 45.4823567,
    "lon": 9.1940819,
    "tags": {
      "highway": "give_way"
    }
  },
  {
    "type": "node",
    "id": 4233700893,
    "lat": 45.4809378,
    "lon": 9.1948959,
    "tags": {
      "entrance": "yes"
    }
  },
  {
    "type": "node",
    "id": 4233700895,
    "lat": 45.4810647,
    "lon": 9.1946233,
    "tags": {
      "entrance": "yes"
    }
  },
  {
    "type": "node",
    "id": 4233700902,
    "lat": 45.4812554,
    "lon": 9.1942139,
    "tags": {
      "entrance": "yes"
    }
  },
  {
    "type": "node",
    "id": 4233700912,
    "lat": 45.4814007,
    "lon": 9.1939017,
    "tags": {
      "entrance": "yes"
    }
  },
  {
    "type": "node",
    "id": 4233700919,
    "lat": 45.4815138,
    "lon": 9.1936588,
    "tags": {
      "entrance": "yes"
    }
  },
  {
    "type": "node",
    "id": 4304781656,
    "lat": 45.4833632,
    "lon": 9.1907063,
    "tags": {
      "amenity": "waste_basket"
    }
  },
  {
    "type": "node",
    "id": 4304781845,
    "lat": 45.4832466,
    "lon": 9.1904341,
    "tags": {
      "amenity": "waste_basket"
    }
  },
  {
    "type": "node",
    "id": 4340767294,
    "lat": 45.4817075,
    "lon": 9.1945343,
    "tags": {
      "emergency": "defibrillator"
    }
  },
  {
    "type": "node",
    "id": 4349756634,
    "lat": 45.4816229,
    "lon": 9.1894935,
    "tags": {
      "highway": "give_way"
    }
  },
  {
    "type": "node",
    "id": 4349756639,
    "lat": 45.4817058,
    "lon": 9.1893885,
    "tags": {
      "access": "private",
      "amenity": "parking_entrance",
      "car": "no",
      "foot": "yes"
    }
  },
  {
    "type": "node",
    "id": 4349756644,
    "lat": 45.4822373,
    "lon": 9.1895565,
    "tags": {
      "access": "private",
      "amenity": "parking_entrance",
      "car": "no"
    }
  },
  {
    "type": "node",
    "id": 4349756649,
    "lat": 45.4822468,
    "lon": 9.1894683,
    "tags": {
      "highway": "crossing"
    }
  },
  {
    "type": "node",
    "id": 4350550982,
    "lat": 45.4808627,
    "lon": 9.1896957,
    "tags": {
      "barrier": "gate"
    }
  },
  {
    "type": "node",
    "id": 4350551696,
    "lat": 45.4810097,
    "lon": 9.1897757,
    "tags": {
      "amenity": "parking_entrance"
    }
  },
  {
    "type": "node",
    "id": 4350551701,
    "lat": 45.4810551,
    "lon": 9.1901489,
    "tags": {
      "amenity": "parking_entrance",
      "layer": "-1"
    }
  },
  {
    "type": "node",
    "id": 4350551709,
    "lat": 45.4811564,
    "lon": 9.1902622,
    "tags": {
      "barrier": "lift_gate"
    }
  },
  {
    "type": "node",
    "id": 4350551716,
    "lat": 45.481251,
    "lon": 9.1900977,
    "tags": {
      "barrier": "gate"
    }
  },
  {
    "type": "node",
    "id": 4350551718,
    "lat": 45.4812775,
    "lon": 9.1903126,
    "tags": {
      "barrier": "gate"
    }
  },
  {
    "type": "node",
    "id": 4350551719,
    "lat": 45.4813217,
    "lon": 9.190279,
    "tags": {
      "natural": "tree"
    }
  },
  {
    "type": "node",
    "id": 4449004403,
    "lat": 45.4801057,
    "lon": 9.1935811,
    "tags": {
      "addr:housenumber": "12",
      "addr:street": "Viale Monte Santo",
      "amenity": "pub",
      "internet_access": "wlan",
      "name": "The Friends"
    }
  },
  {
    "type": "node",
    "id": 4453546022,
    "lat": 45.4803212,
    "lon": 9.192282,
    "tags": {
      "comment:it": "isolatore",
      "fixme": "Position estimated"
    }
  },
  {
    "type": "node",
    "id": 4453546023,
    "lat": 45.4803225,
    "lon": 9.1923509,
    "tags": {
      "comment:it": "obbligo di passare a destra eccetto tram e taxi",
      "direction": "270",
      "traffic_sign": "yes"
    }
  },
  {
    "type": "node",
    "id": 4453546024,
    "lat": 45.4803474,
    "lon": 9.1922886,
    "tags": {
      "comment:it": "isolatore",
      "fixme": "Position estimated"
    }
  }
]